,Latitude,Longitude,Company,Facility,Facility ID,Address,City,County,State,Zip
1,45.0205,-92.4631,ANDERSEN CORP,ANDERSEN CORP,55003NDRSNFOOTO,100 4TH AVE N,BAYPORT,WASHINGTON,MN,55003
2,45.0149,-92.4643,XCEL ENERGY,XCEL ENERGY A S KING GENERATING PLANT,55003SKNGG1103K,1103 KING RD,BAYPORT,WASHINGTON,MN,55003
3,45.3407,-93.1309,WATER WORKS MANUFACTURING,CAMBRIDGE METALS and PLASTICS,55008CMBRD500SC,500 S CLEVELAND,CAMBRIDGE,ISANTI,MN,55008
4,45.3345,-93.1312,,CANADIAN HARVEST USA,55008CNDNH1001S,1001 S CLEVELAND ST,CAMBRIDGE,ISANTI,MN,55008
6,45.3451,-93.1255,,ARROW TANK and ENGINEERING CO,55008RRWTN650NO,650 N EMERSON,CAMBRIDGE,ISANTI,MN,55008
7,45.3416,-93.1258,TEAM INDUSTRIES,TEAM INDUSTRIES-CAMBRIDGE,55008TMNDS625SE,625 SECOND AVE SE,CAMBRIDGE,ISANTI,MN,55008
8,44.311,-92.5411,HENKEL CORP,BERGQUIST CO,55009BRGQS301WA,301 WASHINGTON ST W,CANNON FALLS,GOODHUE,MN,55009
9,44.3106,-92.5413,CANNON EQUIPMENT CO,CANNON EQUIPMENT MIDWEST,55009CNNNQ324WW,324 W WASHINGTON ST,CANNON FALLS,GOODHUE,MN,55009
10,44.3114,-92.5418,GEMINI INC,GEMINI - CANNON FALLS,55009GMNNC103ME,103 MENSING WAY,CANNON FALLS,GOODHUE,MN,55009
11,44.3108,-92.5403,,AMESBURY GROUP INC,55009MSBRY105WA,105 WASHINGTON ST,CANNON FALLS,GOODHUE,MN,550090456
14,44.4736,-92.54,TYR ENERGY LLC,LSP - COTTAGE GROVE LP,55016LSPCT95251,9525 105TH ST CT S,COTTAGE GROVE,WASHINGTON,MN,55016
15,44.4719,-92.5415,3M CO,3M COTTAGE GROVE CENTER,55016MCHMLHIGHW,10746 INNOVATION RD,COTTAGE GROVE,WASHINGTON,MN,55016
17,44.174,-93.155,,BEATRICE CHEESE INC,55021BTRCC222NE,222 NE 3RD ST,FARIBAULT,RICE,MN,55021
18,44.1736,-93.1736,CROWN HOLDINGS INC,CROWN AEROSOL PACKAGING,55021CRWNCPOBOX,4TH ST and PARK AVE,FARIBAULT,RICE,MN,55021
20,44.1728,-93.1602,HORMEL FOODS CORP,JENNIE-O TURKEY STORE INC,55021JRMFD1116N,1116 NW 4TH AVE NW,FARIBAULT,RICE,MN,55021
21,44.1929,-93.175,,NORTHERN TOOL and EQUIPMENT,55021KBRND2050A,2050 AIRTECH RD,FARIBAULT,RICE,MN,55021
22,44.1739,-93.1619,K and G MANUFACTURING CO,K and G MANUFACTURING CO,55021KGMNF226PA,226 PARK AVE NW,FARIBAULT,RICE,MN,55021
23,44.193,-93.183,,PROTIENT INC,55021LNDLK1612N,1612 NW 7TH ST,FARIBAULT,RICE,MN,55021
25,44.1859,-93.1624,DAIKIN AMERICA INC,DAIKIN APPLIED,55021SNYDR30024,300 24TH ST NW,FARIBAULT,RICE,MN,55021
26,44.3832,-93.1025,,DUO PLASTICS INC,55024DPLST5119W,5119 W 212TH ST,FARMINGTON,DAKOTA,MN,55024
27,44.3842,-93.1005,VALMONT INDUSTRIES INC,VALMONT INDUSTRIES INC,55024LXNGT20805,20805 EATON AVE,FARMINGTON,DAKOTA,MN,55024
28,44.3836,-93.0834,DAIRY FARMERS OF AMERICA INC,KEMPS LLC,55024MRGLD15FOU,15 - 4TH ST,FARMINGTON,DAKOTA,MN,55024
32,44.4419,-92.505,,CONAGRA FOODS GRAIN PROCESSING CO,55033CNGRF2005V,1 KING MIDAS PARK,HASTINGS,DAKOTA,MN,55033
33,44.4309,-92.5042,,CURTIS ELECTRONICS CORP,55033CRTSL700SP,700 SPIRAL BLVD,HASTINGS,DAKOTA,MN,55033
34,44.4441,-92.5009,,INTEK PLASTICS INC,55033MSTRN1000S,1000 SPIRIAL BLVD,HASTINGS,DAKOTA,MN,550332299
35,44.4405,-92.5025,,INTEK PLASTICS INC,55033NTKWT800EA,800 E 10TH ST,HASTINGS,DAKOTA,MN,550332299
36,45.0945,-93.0118,,AD GRAPHICS,55038DGRPH2300M,2300 MAIN ST,HUGO,ANOKA,MN,55038
37,45.083,-93.0014,LOAD MASTER LUBRICANTS,LOAD MASTER LUBRICANTS,55038NRLKS13615,13615 FENWAY BLVD CT N,HUGO,WASHINGTON,MN,55038
41,44.2613,-92.153,FEDERAL MOGUL CORP,FEDERAL-MOGUL POWERTRAIN SYSTEMS,55041JPTRN520N8,520 N 8TH ST,LAKE CITY,WABASHA,MN,55041
42,44.2451,-92.2005,,LAND O'LAKES,55041LNDLKRR1XX,RR 1,LAKE CITY,WABASHA,MN,55041
43,44.26,-92.15,,VALLEY CRAFT INC,55041VLLYC2001S,2001 S HWY 61,LAKE CITY,WABASHA,MN,550419555
45,44.3805,-93.1341,,UNIVAR USA INC LAKEVILLE,55044CHMCN21675,21675 HAMBURG AVE,LAKEVILLE,DAKOTA,MN,550449197
46,44.3755,-93.0846,,CROWN CORK and SEAL CO INC,55044CRWNC84152,8415 220TH ST W,LAKEVILLE,DAKOTA,MN,55044
49,44.38,-93.133,,HITCHCOCK INDUSTRIES INC LAKEVILLE OPERATIONS,55044HTCHC21850,21850 GRANADA AVE,LAKEVILLE,DAKOTA,MN,55044
50,44.38,-93.14,,ROTADYNE ROLL GROUP,55044MDMRC77852,7785 - 218TH ST,LAKEVILLE,DAKOTA,MN,55044
51,44.3705,-93.0702,,MENASHA CORP,55044MNSHC80852,8085 220TH ST,LAKEVILLE,DAKOTA,MN,55044
53,44.2837,-93.2458,,TELAMCO INC,55046TLMCN636IN,636 INDUSTRIAL DR SE,LONSDALE,RICE,MN,55046
57,45.531,-93.1618,,BWHC/BLUEWATER,55051BLWTR811EM,811 E MAPLE AVE,MORA,KANABEC,MN,550511224
58,45.531,-93.1618,,FORRESTER BOX CO INC,55051FRRST124NW,124 N WALNUT,MORA,KANABEC,MN,55051
59,45.525,-93.1635,,ENGINEERED POLYMERS CORP,55051SHLLR1020E,1020 E MAPLE AVE,MORA,KANABEC,MN,55051
61,45.3235,-92.5745,,CHINOOK GROUP INC,55056CHNKGCORD3,41420 FOREST BLVD AT CITY RD 415,NORTH BRANCH,CHISAGO,MN,55056
63,45.3104,-93.0209,,PRODUCT FABRICATORS INC,55056PRDCTINDUS,"302 1ST AVE, INDUSTRIAL PARK",NORTH BRANCH,CHISAGO,MN,55056
64,44.2622,-93.1109,,FMC FOODTECH INC,55057FRGSC1700C,1700 CANNON RD PO BOX 98,NORTHFIELD,RICE,MN,55057
66,44.2715,-93.1,POST HOLDINGS INC,MOM BRANDS,55057MLTML701WF,701 W FIFTH ST,NORTHFIELD,RICE,MN,55057
67,44.2807,-93.0924,FLEXTRONICS INTERNATIONAL USA,MULTEK FLEXIBLE CIRCUITS INC,55057SHLDHHIGHW,1150 SHELDAHL RD,NORTHFIELD,DAKOTA,MN,55057
71,44.0325,-93.1345,CATERPILLAR INC,CATERPILLAR FOREST PRODUCTS,55060BLNTNCOUNT,3249 CO RD 45 S,OWATONNA,STEELE,MN,55060
72,44.05,-93.1345,CROWN HOLDINGS INC,CROWN FOOD PACKAGING,55060CRWNC2929W,2929 W BRIDGE ST,OWATONNA,STEELE,MN,55060
76,44.0353,-93.1316,VISANT CORP,JOSTENS INC - SOUTHTOWN,55060JSTNS1900H,1900 HARTLE AVE,OWATONNA,STEELE,MN,55060
77,44.0522,-93.1523,,LAND O'LAKES FARMLAND FEED,55060LNDLK80024,800 24TH AVE NW,OWATONNA,STEELE,MN,55060
78,47.4859,-94.1426,AAF MCQUAY GROUP INC,DAIKIN APPLIED OWATONNA MN,55060MCQYN10012,1001 21ST AVE NW,OWATONNA,STEELE,MN,55060
79,44.0703,-93.1503,,MUSTANG MFG CO INC,55060MSTNGCOUNT,1605 COUNTY RD 45 N,OWATONNA,STEELE,MN,55060
80,44.0518,-93.152,,NATIONAL COMPUTER SYSTEMS INC,55060NTNLC21254,2125 4TH ST NW,OWATONNA,STEELE,MN,55060
81,44.0727,-93.1538,,SLIDELL INC,55060SLDLL2355L,2355 LEMOND RD,OWATONNA,STEELE,MN,55060
82,44.0539,-93.1418,,BOSCH AUTOMOTIVE SERVICE SOLUTIONS LLC,55060SPXCR655EI,655 EISENHOWER DR,OWATONNA,STEELE,MN,55060
83,44.0531,-93.1519,,LEE HOLDINGS,55060SPXSR23PAR,2300 PARK DR,OWATONNA,STEELE,MN,55060
84,44.05,-93.1445,,TRUTH HARDWARE PAINT PLANT,55060TCPNT20524,205 24TH AVE SW,OWATONNA,STEELE,MN,55060
85,44.051,-93.1437,TYMAN PLC,TRUTH HARDWARE CORP-OWATONNA,55060TRTHH700WB,700 W BRIDGE ST,OWATONNA,STEELE,MN,55060
86,44.0528,-93.1503,,VIRACON INC,55060VRCNN800PA,800 PARK DR,OWATONNA,STEELE,MN,55060
87,44.052,-93.1449,,WENGER CORP,55060WNGRC555PA,555 PARK DR,OWATONNA,STEELE,MN,55060
88,45.49,-92.58,,3M CO PINE CITY PLANT,55063MCMPN4002N,400 2ND ST,PINE CITY,PINE,MN,550630089
90,44.343,-92.363,,CARLISLE POWER TRANSMISSION PRODUCTS,55066DRKTW4079P,4079 PEPIN AVE,RED WING,GOODHUE,MN,55066
91,44.34,-92.311,ARCHER DANIELS MIDLAND CO,ADM CO,55066RCHRD118MA,118 MAIN ST,RED WING,GOODHUE,MN,55066
92,44.3404,-92.3157,,RED WING SHOE CO INC PLANT 1,55066RDWNG129MA,129 MAIN ST,RED WING,GOODHUE,MN,55066
93,44.3423,-92.3523,RED WING SHOE CO,RED WING SHOE PLANT 2,55066RDWNG135CA,135 CANNON RIVER DR,RED WING,GOODHUE,MN,55066
94,44.341,-92.3149,,RIVERA CABINETS,55066RVRCB3680V,3860 VERMILLION ST,RED WING,GOODHUE,MN,55066
95,44.3246,-92.3409,RED WING SHOE CO,S B FOOT TANNING CO,55066SBFTTBENCH,805 BENCH ST,RED WING,GOODHUE,MN,55066
96,44.3252,-92.2921,USG CORP,USG INTERIORS LLC,55066SGNTR27384,27384 HIGHWAY 61 BLVD,RED WING,GOODHUE,MN,55066
97,44.4553,-93.015,,CONTINENTAL NITROGEN and RESOURCES CORP,55068CNTNN12995,12955 COURTHOUSE BLVD,ROSEMOUNT,DAKOTA,MN,550682613
98,44.42,-93.032,,DOLE EXPLOSIVES INC,55068DLXPL15325,"15325 BABCOCK, AVE",ROSEMOUNT,DAKOTA,MN,55068
99,44.4549,-93.013,DX HOLDING CO,DPC INDUSTRIES INC,55068DPCND12800,12800 PINE BEND TRAIL,ROSEMOUNT,DAKOTA,MN,55068
100,44.4321,-93.0115,,RAYFO INC,55068RYFNC41801,4180 160TH ST E,ROSEMOUNT,DAKOTA,MN,55068
101,44.4525,-93.0036,,SPECTRO ALLOYS CORP,55068SPCTL13220,13220 DOYLE PATH,ROSEMOUNT,DAKOTA,MN,55068
102,44.4326,-93.0211,,WASTEQUIP INC (DBA RAYFO),55068WSTQP15629,15629 CLAYTON AVE E,ROSEMOUNT,DAKOTA,MN,55068
103,45.3246,-92.5838,ZINPRO CORP,ZINPRO CORP,55069LNDLK404EA,6375 415TH ST,NORTH BRANCH,CHISAGO,MN,55056
104,45.041,-92.581,,PLASTECH CORP,55069PLSTC920SF,920 S FRANDSEN AVE,RUSH CITY,CHISAGO,MN,55069
110,45.24,-93.29,ORBITAL ATK INC,ALLIANT TECHSYSTEMS PROVING GROUND,55070LLNTT23100,23100 SUGAR B US H RD NW,SAINT FRANCIS,ANOKA,MN,55070
111,44.5053,-93.0029,ANDEAVOR,ST PAUL PARK REFINING CO LLC,55071SHLND100WT,301 ST PAUL PARK RD,SAINT PAUL PARK,WASHINGTON,MN,55071
112,45.1524,-92.4812,,NICKELSON PLASTICS,55073NCKLS21279,21279 OLINDA TRAIL N,SCANDIA,WASHINGTON,MN,55073
115,44.523,-93.0,,DAKOTA PREMIUM FOODS,55075DKTPR425SC,425 CONCORD ST,SOUTH SAINT PAUL,DAKOTA,MN,550752450
117,44.4659,-93.0206,,UNION CARBIDE INDUSTRIAL GASES INC,55075NNCRBHWY55,HWY 55 and 117TH ST,INVER GROVE HEIGHTS,DAKOTA,MN,55075
118,44.5233,-93.0132,,TWIN CITY TANNING CO LLP,55075TWNCT501MA,501 MALDEN ST,SOUTH SAINT PAUL,DAKOTA,MN,55075
119,44.5301,-93.0128,SANIMAX USA LLC,SANIMAX USA LLC,55075VNHVN505HA,545 HARDMAN AVE SOUTH,SOUTH SAINT PAUL,DAKOTA,MN,55075
120,44.5345,-93.0145,,WATEROUS CO INC,55075WTRSC300JO,125 HARDMAN AVE S,SOUTH SAINT PAUL,DAKOTA,MN,55075
121,44.5126,-93.0218,,LOFTON LABEL INC,55076LFTNL6290C,6290 CLAUDEWAY E,INVER GROVE HEIGHTS,DAKOTA,MN,55076
122,44.4653,-93.0143,LAND O LAKES INC,LAND O'LAKES PURINA FEED LLC - INVER GROVE HEIGHTS,55076LNDLK37631,3763 117TH ST E,INVER GROVE HEIGHTS,DAKOTA,MN,55077
127,45.3944,-93.2419,,LAND O'LAKES INC DALBO,55080LNDLKHWY47,HWY 47,DALBO,ISANTI,MN,55080
128,45.0228,-92.491,,3M CO STILLWATER,55082PRSSN1987I,1987 INDUSTRIAL BLVD,STILLWATER,WASHINGTON,MN,55082
129,45.193,-93.0005,,DIVERSIFIED PRODUCTS INC,55092DVRSF25900,25900 FALLBROOK AVE,WYOMING,CHISAGO,MN,55092
130,45.2,-93.0,,SUNRISE FIBERGLASS CORP,55092SNRSF26467,26467 FALLBROOK AVE S,WYOMING,CHISAGO,MN,55092
131,45.1931,-93.0006,,SUNRISE FIBERGLASS LLC,55092SNRSF51752,5175 260TH ST,WYOMING,CHISAGO,MN,55092
132,44.5702,-93.0514,,BUCKBEE-MEARS ST PAUL,55101BCKBM245E6,245 6TH ST E,SAINT PAUL,RAMSEY,MN,551011918
133,44.5806,-93.0512,,ADVANCE CORP,55101DVNCC327EY,327 E YORK AVE,SAINT PAUL,RAMSEY,MN,55101
134,44.5803,-93.0501,,OLIVE STREET SCREEN PRINTING,55101LVSTR606OL,606 OLIVE ST,SAINT PAUL,RAMSEY,MN,55101
135,44.5625,-93.0503,,DIAL CORP,55101THDLC149SO,149 S ROBERT ST,SAINT PAUL,RAMSEY,MN,55101
136,44.5719,-93.0607,,DIAMOND PRODUCTS CO,55101THGLL5THAT,310 E FIFTH ST,SAINT PAUL,RAMSEY,MN,55101
137,44.58,-93.0502,UNIVAR USA INC,UNIVAR USA INC-ST PAUL,55101VNWTR845TE,845 TERRACE CT,SAINT PAUL,RAMSEY,MN,55130
138,44.56,-93.063,,EXCEL ENERGY HIGH BRIDGE GENERATING PLANT,55102HGHBR501SH,501 SHEPARD RD,SAINT PAUL,RAMSEY,MN,55102
139,45.533,-93.0705,,MBC HOLDING CO,55102JCBSC882W7,882 W 7TH ST,SAINT PAUL,RAMSEY,MN,55102
141,44.5631,-93.0602,,TAMOR CORP,55102NCHRH224RY,224 RYAN AVE,SAINT PAUL,RAMSEY,MN,551020830
142,44.553,-93.063,TPG CAPITAL,"NEXEO SOLUTIONS, LLC",55102SHLND395JA,395 JAMES AVE.,ST. PAUL,RAMSEY,MN,55102
143,44.582,-93.0845,,GNB INC,55103GNBNC1025N,1025 N LEXINGTON PKY,SAINT PAUL,RAMSEY,MN,55103
146,44.5658,-93.1004,,CO-OPERATIVE PLATING CO,55104CPRTV1605I,1605 IGLEHART AVE,SAINT PAUL,RAMSEY,MN,55104
147,44.573,-93.251,,DELUXE BUSINESS SYSTEMS,55104DLXCR530NW,530 N WHEELER ST,SAINT PAUL,RAMSEY,MN,55104
148,44.5732,-93.1036,HARCROS CHEMICALS INC,HARCROS CHEMICALS INC,55104HRCRS584NF,584 N FAIRVIEW AVE,SAINT PAUL,RAMSEY,MN,55104
149,45.3617,-93.1744,,HUOT MANUFACTURING CO,55104HTMFG550NW,550 NORTH WHEELER AVE,SAINT PAUL,RAMSEY,MN,55104
150,44.5656,-93.0909,,LOES ENTERPRISES INC,55104LSNTR1457I,1457 IGLEHART AVE,SAINT PAUL,RAMSEY,MN,55104
151,44.5739,-93.1039,,MCGILL JENSEN INC,55104MCGLL655FA,655 FAIRVIEW AVE N,SAINT PAUL,RAMSEY,MN,55104
152,44.5645,-93.132,,SILGAN CONTAINERS MANUFACTURIN G CORP,55104MRCNN755NO,755 N PRIOR AVE,SAINT PAUL,RAMSEY,MN,55104
153,44.5805,-93.1055,PLATING INC,PLATING INC,55104PLTNG888NO,888 PRIOR AVE N,SAINT PAUL,RAMSEY,MN,55104
154,44.5716,-93.0909,,RAYVEN INC,55104RYVNN431NG,431 N GRIGGS ST,SAINT PAUL,RAMSEY,MN,55104
155,44.5752,-93.073,,SPARTAN MFG CO INC,55104SPRTN630PI,630 PIERCE BUTLER RTE,SAINT PAUL,RAMSEY,MN,55104
156,44.5745,-93.0825,,ST PAUL BRASS FOUNDRY CO,55104STPLB954WE,954 W MINNEHAHA AVE,SAINT PAUL,RAMSEY,MN,55104
158,44.4856,-92.5656,,ADVANCE CORP,55106DVNCC358PR,8200 97TH ST S,COTTAGE GROVE,WASHINGTON,MN,55016
159,44.5815,-93.023,,ADVANCE CORP,55106DVNCC958PR,958 PROSPERITY AVE,SAINT PAUL,RAMSEY,MN,55106
160,44.5801,-93.0311,,GLOBE BUILDING MATERIALS INC,55106GLBBL1120E,1120 E 7TH ST,SAINT PAUL,RAMSEY,MN,55106
161,44.5627,-93.0304,KOCH INDUSTRIES INC,FLINT HILLS RESOURCES PINE BEND LLC ST PAUL,55106KCHMT2209C,2209 CHILDS RD,SAINT PAUL,RAMSEY,MN,55106
162,44.5719,-93.0607,,NOBLES MANUFACTURING INC,55106NBLSN645E7,645 E 7TH ST,SAINT PAUL,RAMSEY,MN,551065093
163,44.5802,-93.0345,NORTHERN IRON OF ST PAUL LLC,NORTHERN IRON and MACHINE,55106NRTHR867FO,867 FOREST ST,SAINT PAUL,RAMSEY,MN,55106
164,44.5526,-93.0242,,PM AG PRODS INC,55106PMGPR2225C,2225 CHILDS RD,SAINT PAUL,RAMSEY,MN,551066796
165,45.575,-93.0415,,STROH BREWERY CO,55106THSTR707EM,707 E MINNEHAHA,SAINT PAUL,RAMSEY,MN,55106
166,44.5631,-93.0306,HAWKINS INC,HAWKINS TERMINAL I,55106VLTXC1125C,1125 CHILDS RD,SAINT PAUL,RAMSEY,MN,551066072
167,44.563,-93.0429,,BROWN and BIGELOW INC,55107BRWNB345PL,345 PLATO BLVD E,SAINT PAUL,RAMSEY,MN,55107
168,44.56,-93.0448,,SEACOLE - CandH,55107CHCHM222ST,222 STARKEY ST,SAINT PAUL,RAMSEY,MN,55107
169,45.0215,-93.0423,,MOLEX COPPER FLEX PRODUCTS,55107CNTRY155EA,155 EATON ST,SAINT PAUL,RAMSEY,MN,55107
170,44.5614,-93.0529,,AUTOMATIC PRODUCTS INTERNATIONAL LTD,55107GRSSG75WES,75 W PLATO BLVD,SAINT PAUL,RAMSEY,MN,55107
171,44.5604,-93.0549,,J and L WIRE CLOTH CO INC,55107JLWRC268WA,268 W WATER ST,SAINT PAUL,RAMSEY,MN,55107
172,44.5614,-93.0555,,AMERICRAFT CARTON INC,55107KPLNP403FI,403 FILLMORE AVE E,SAINT PAUL,RAMSEY,MN,55107
173,44.5605,-93.0546,,MODINE N CENTRAL INC,55107MDNNR252WE,252 W WATER ST,SAINT PAUL,RAMSEY,MN,55107
174,44.5613,-93.051,BALL CORP,REXAM BEVERAGE CAN CO,55107MRCNN139EV,139 EVA ST,SAINT PAUL,RAMSEY,MN,55107
175,44.5625,-93.053,,3M CO,55107MXXXX42WES,42 W WATER ST,SAINT PAUL,RAMSEY,MN,55107
176,44.5608,-93.0436,,VIKING DRILL and TOOL INC,55107VKNGD355ST,355 STATE ST,SAINT PAUL,RAMSEY,MN,55107
178,44.5836,-93.1036,,GENERAL FOAM OF MINNESOTA INC,55108GNRLF1800C,1800 COMO AVE,SAINT PAUL,RAMSEY,MN,55108
179,44.5829,-93.1159,,H B FULLER CO,55108HBFLL2400E,2400 ENERGY PARK DR,SAINT PAUL,RAMSEY,MN,55108
180,44.1501,-93.0903,,LITHO SPECIALTIES INC,55108LTHSP1280E,1280 ENERGY PARK DR,SAINT PAUL,RAMSEY,MN,55108
181,44.584,-93.1217,,IVC NORTH INC (DBA TI KROMATIC INDUSTRIAL),55108TKRMT2492D,2492 DOSWELL AVE,SAINT PAUL,RAMSEY,MN,55108
182,44.5813,-94.0907,,ETA SYS INC MFG,55108TSYST1200E,1200 ENERGY PARK DR,SAINT PAUL,RAMSEY,MN,55108
183,44.583,-93.113,BRENNTAG NA INC,BRENNTAG GREAT LAKES LLC,55108WRMCH2130E,2130 ENERGY PARK DR,SAINT PAUL,RAMSEY,MN,55108
184,45.01,-93.01,,HYDROSTREAM BOATS,55109HYDRS2059W,2059 WHITEBEAR AVE,MAPLEWOOD,RAMSEY,MN,55109
185,45.0208,-93.013,,PROLIANCE INTERNATIONAL INC.,55109MDNNR2055W,2055 WHITE BEAR AVE SUITE B,MAPLEWOOD,RAMSEY,MN,551093706
187,45.0032,-93.5958,,GE SECURITY,55109NTRCT2266S,2266 SECOND ST N,SAINT PAUL,RAMSEY,MN,55109
190,45.0411,-93.0311,,ACCU-TRONICS MANUFACTURING INC,55110CCTRN4255W,4255 WHITE BEAR PKWY SUITE 2100,WHITE BEAR LAKE,RAMSEY,MN,55110
191,45.0431,-93.0245,,CONTAINER GRAPHICS CORP,55110CNTNR4841W,4841 WHITE BEAR PKWY,WHITE BEAR LAKE,RAMSEY,MN,55110
192,45.0349,-93.0254,,CORTEC CORP,55110CRTCC4119W,4119 WHITE BEAR PKWY,WHITE BEAR LAKE,RAMSEY,MN,55110
193,45.0817,-93.0008,,DYNA GLASS INC,55110DYNGL5100N,5100 N 130TH ST,WHITE BEAR LAKE,RAMSEY,MN,551105935
195,45.0246,-93.0319,HB FULLER CO,HB FULLER PILOT FACILITY,55110HBFLL3450L,3450 LABORE RD,VADNAIS HEIGHTS,RAMSEY,MN,55110
196,45.0,-93.0206,,3M CO OPTICAL RECORDING DEPT,55110MPTCL1185W,1185 WOLTERS BLVD,VADNAIS HEIGHTS,RAMSEY,MN,55110
197,45.0309,-93.0152,,NORDIC PAK INC,55110NRDCP4390M,4390 MCMENEMY ST,VADNAIS HEIGHTS,RAMSEY,MN,55110
198,45.025,-93.0302,IP CORP,INTERPLASTIC CORP,55110NTRPL1219W,1219 WILLOW LAKE BLVD,VADNAIS HEIGHTS,RAMSEY,MN,55110
199,45.041,-93.0137,UNIVERSAL FOREST PRODUCTS INC,UFP WHITE BEAR LAKE LLC,55110QLTYW4141H,4141 HOFFMAN RD,WHITE BEAR LAKE,RAMSEY,MN,55110
200,45.012,-93.023,SAPUTO CHEESE USA INC,SAPUTO DAIRY FOODS USA,55110RHLRM4041H,4041 HWY 61 N,WHITE BEAR LAKE,RAMSEY,MN,55110
201,45.0505,-93.0035,,ASPEN RESEARCH CORPORATION,55110SPNRS1812B,1700 BUERKLE RD,WHITE BEAR LAKE,RAMSEY,MN,55110
202,45.0504,-93.03,INGERSOLL-RAND CO,TRANE US INC,55110TRNXX4833W,4833 WHITE BEAR PKWY,SAINT PAUL,RAMSEY,MN,55110
203,45.083,-93.1012,,WILSON TOOL INTL INC,55110WLSNT12912,12912 FARNHAM AVE,WHITE BEAR LAKE,WASHINGTON,MN,551105997
205,44.5245,-93.1314,,NORTHWEST AIRLINES INC,55111NRTHW5101N,DEPT. C-9025 7500 AIRLINE DR,MINNEAPOLIS,HENNEPIN,MN,554501101
206,45.043,-93.1118,,BELL LUMBER and POLE CO,55112BLLLM7781S,778 1ST ST NW,NEW BRIGHTON,RAMSEY,MN,55112
207,45.0255,-93.114,,BASIC INDUSTRIES,55112BSCND1275O,1275 OLD HWY 8,NEW BRIGHTON,RAMSEY,MN,55112
209,45.0357,-93.092,BOSTON SCIENTIFIC CORP,BOSTON SCIENTIFIC-CRM,55112CRDCP4100H,4100 HAMLINE AVE N,SAINT PAUL,RAMSEY,MN,55112
210,45.0517,-93.1038,,US ARMY TCAAP ALLIANT AMMUNITION SYSTEMS CO LLC,55112HNYWLTWINC,TCAAP - BUILDING 104,ARDEN HILLS,RAMSEY,MN,55112
211,45.0423,-93.1108,,"DARLING and CO, KEM MILLING CO DIV",55112KMMLL61914,619 14TH ST NE,NEW BRIGHTON,RAMSEY,MN,55112
212,45.0326,-93.115,,MICOM CORP,55112MCMCR4758T,475 OLD HWY 8 NW,NEW BRIGHTON,RAMSEY,MN,55112
213,45.0512,-93.112,,E/M CORP,55112MCRPX2172O,2172 OLD HWY 8,NEW BRIGHTON,RAMSEY,MN,551121802
214,45.0421,-93.1059,,"CELESTICA, INC.",55112MNFCT4300W,4300 W ROUND LAKE RD,ARDEN HILLS,RAMSEY,MN,55112
215,45.0301,-93.0923,,INTERNATIONAL PAPER CO,55112NTRNT1300R,1300 RED FOX RD,NEW BRIGHTON,RAMSEY,MN,55112
216,45.0315,-93.092,,PHARMACIA DELTEC INC,55112PHRMC1265G,1265 GREY FOX RD,SAINT PAUL,RAMSEY,MN,55112
218,45.0505,-93.101,,US ARMY TWIN CITIES ARMY AMMUNITION PLANT,55112SRMYT4700H,4700 HIGHWAY 10,SAINT PAUL,RAMSEY,MN,55112
219,45.0316,-93.1114,,MACGILLIS and GIBBS CO,55112THMCG440FI,440 5TH AVE NW,NEW BRIGHTON,RAMSEY,MN,55112
220,45.0218,-93.1127,,TREND SCIENTIFIC INC,55112TRNDS368WC,368 W COUNTY RD D,NEW BRIGHTON,RAMSEY,MN,55112
221,45.0259,-93.1109,,TRAN ELECTRONICS CORP,55112TRNLC822ND,82 2ND AVE SE,NEW BRIGHTON,RAMSEY,MN,55112
222,45.06,-94.11,,TWIN CITIES ARMY AMMUNITION PLANT FEDERAL CARTRIDGE CO,55112TWNCTUSHWY,US HWY 10 and HWY 96,ARDEN HILLS,RAMSEY,MN,55112
223,45.0401,-93.1108,,AQSEPTENCE GROUP INC,55112WHLBR1950O,1950 OLD HWY 8,NEW BRIGHTON,RAMSEY,MN,55112
224,45.0259,-93.1129,,WOLKERSTORFER CO INC,55112WLKRS348FI,348 1ST ST SW,NEW BRIGHTON,RAMSEY,MN,55112
225,45.0041,-93.1204,,DELUXE BUSINESS SYS,55113DLXBS2341S,2341 ST CROIX ST,SAINT PAUL,RAMSEY,MN,55113
226,45.012,-93.1035,,HONEYWELL ELECTRONIC MATERIALS INC,55113DVNCC1633T,1633 TERRACE DR,ROSEVILLE,RAMSEY,MN,55113
227,45.0115,-93.111,LUBRICATION TECHNOLOGIES INC,LUBRICATION TECHNOLOGIES INC,55113LBRCT2420W,2420 W COUNTY RD C,ROSEVILLE,RAMSEY,MN,55113
228,45.001,-93.1137,,TESORO REFINING and MARKETING ROSEVILLE TERMINAL,55113MCLC02288W,2288 W COUNTY RD C,SAINT PAUL,RAMSEY,MN,55113
229,45.0118,-93.1155,,BRENNTAG GREAT LAKES LLC,55113MLSLV2340R,2340 ROSE PL,ROSEVILLE,RAMSEY,MN,55113
230,45.0042,-93.1222,,UNICIRCUIT ROSEVILLE,55113MLTLY2520T,2520 TERMINAL RD,ROSEVILLE,RAMSEY,MN,55113
231,45.0109,-93.0625,,WM LAMPTRACKER INC,55113MRCRY2007W,2007 W COUNTY RD C-2,ROSEVILLE,RAMSEY,MN,55113
232,45.093,-93.1,,ATandT NCR NETWORK PRODUCTS DIV,55113NCRNT1950W,1950 W COUNTY RD B-2,SAINT PAUL,RAMSEY,MN,551131784
233,45.0038,-93.1228,,UNISYS CORP,55113NSYSC2276H,2276 HIGHCREST RD,ROSEVILLE,RAMSEY,MN,55113
234,45.01,-93.12,,DIMENSION IMAGING,55113PLXGR2269W,2269 W COUNTY RD C,ROSEVILLE,RAMSEY,MN,55113
235,45.0117,-93.1044,,RAMSEY TECHNOLOGY INC,55113RMSYT1853W,1853 W COUNTY RD C,SAINT PAUL,RAMSEY,MN,55113
236,45.0042,-93.1133,,ARTISTIC FINISHES INC,55113RTSTC2224T,2224 TERMINAL RD,ROSEVILLE,RAMSEY,MN,551132515
237,45.0015,-93.0619,,AGROPUR INC,55113SCHRD2080R,2080 RICE ST,MAPLEWOOD,RAMSEY,MN,55113
238,45.0101,-93.1211,EWT HOLDINGS III CORP,EVOQUA WATER TECHNOLOGIES LLC,55113SFLTR2430R,2430 ROSE PL,ROSEVILLE,RAMSEY,MN,55113
239,45.0024,-93.1152,,STONE CONTAINER CORP,55113STNCN3075L,3075 LONG LAKE RD,SAINT PAUL,RAMSEY,MN,55113
240,44.5934,-93.0545,,SAINT PAUL REGIONAL WATER SERVICES,55113STPLW1900N,1900 RICE ST,SAINT PAUL,RAMSEY,MN,55113
241,45.0208,-93.1214,,WILLAMETTE INDUSTRIES INC,55113WLLMT2425T,2425 TERMINAL RD,SAINT PAUL,RAMSEY,MN,55113
242,44.5809,-93.114,,FISHER NUT CO,55114BTRCH2327W,2327 WYCLIFF ST,SAINT PAUL,RAMSEY,MN,55114
243,44.4152,-93.0841,,DIXIE PETRO-CHEM INC,55114DXPTR976BR,976 BRADFORD,SAINT PAUL,RAMSEY,MN,55114
244,44.5737,-93.122,,SAMINA SCI,55114HRTZL2516W,2516 WABASH AVE,SAINT PAUL,RAMSEY,MN,55114
246,44.5746,-93.1137,,TETRA PAK EQUIPUS INC,55114LQPKN2285U,2285 UNIVERSITY AVE,SAINT PAUL,RAMSEY,MN,55114
247,44.5813,-93.1129,,MIXON INC,55114MXNNC2286C,2286 CAPP ROAD,SAINT PAUL,RAMSEY,MN,55114
248,44.5732,-93.1123,,NOR-LAKES SERVICES MIDWEST INC,55114NRLKS606VA,606 VANDALIA ST,SAINT PAUL,RAMSEY,MN,55114
249,44.5744,-93.1151,,SEWALL GEAR MFG CO,55114SWLLG705RA,705 RAYMOND AVE,SAINT PAUL,RAMSEY,MN,55114
250,44.5737,-93.1139,WESTROCK CO,WESTROCK MN CORP,55114WLDRF2250W,2250 WABASH AVE,SAINT PAUL,RAMSEY,MN,55114
251,44.545,-93.1145,,FORD MOTOR CO. TWIN CITIES ASSEMBLY PLANT,55116FRDMT966SM,966 S MISSISSIPPI RIVER BLVD,SAINT PAUL,RAMSEY,MN,55116
252,44.5505,-93.1148,,MULTI-CLEAN INC,55116MLTCL2277F,2277 FORD PKWY,SAINT PAUL,RAMSEY,MN,55116
253,44.54,-93.1,,LORAL DEFENSE SYS-EAGAN,55116NSYSS2751S,2751 SHEPARD RD,SAINT PAUL,RAMSEY,MN,55116
254,44.5426,-93.0904,,QUEBECOR PRINTING ST PAUL,55116QBCRP1999S,1999 SHEPARD RD,SAINT PAUL,RAMSEY,MN,55116
255,44.5822,-93.0721,,CONTAINER CORP OF AMERICA,55117CNTNR1050N,1050 N KENT ST,SAINT PAUL,RAMSEY,MN,55117
256,44.5845,-93.0553,ELLIOTT AUTO SUPPLY CO INC,SPLASH PRODUCTS,55117FXPCK51EAS,51 E MARYLAND AVE,SAINT PAUL,RAMSEY,MN,55117
257,44.583,-93.074,,ELECTRO-PLATING ENG INC,55117LCTRP45WES,45 W IVY,SAINT PAUL,RAMSEY,MN,551177249
258,44.5323,-93.0403,,MULTI-ARC SCIENTIFIC COATINGS INC,55118MLTRC1990C,1990 CHRISTENSEN AVE,WEST SAINT PAUL,DAKOTA,MN,55118
259,44.5324,-93.0415,,FLINT INK NA CORP,55118SNCLR245EM,245 E MARIE,SAINT PAUL,DAKOTA,MN,551188409
260,44.533,-93.043,,TAPEMARK CO,55118TPMRK220EM,220 E MARIE AVE,WEST SAINT PAUL,DAKOTA,MN,55118
261,44.5355,-93.0101,HAWKINS INC,HAWKINS WATER TREATMENT GROUP - RED ROCK,55119HWKNS1425R,1425 RED ROCK RD,SAINT PAUL,RAMSEY,MN,55119
263,44.53,-93.003,GERDAU USA INC,GERDAU AMERISTEEL ST PAUL MILL,55119NRTHS1678R,1678 RED ROCK RD,SAINT PAUL,RAMSEY,MN,55119
268,44.5224,-93.1004,,APPLIED COATING TECHNOLGY INC PLANT 2,55120FTMRK2411P,2411 PILOT KNOB RD,MENDOTA HEIGHTS,DAKOTA,MN,55120
269,44.4959,-93.0749,,BO-DECOR METAL FINISHING INC,55121BDCRM3350M,3350 MIKE COLLINS DR,EAGAN,DAKOTA,MN,55121
270,44.5045,-93.0725,,BROWN MINNEAPOLIS TANK,55121BRWNM2875H,2875 HWY 55,EAGAN,DAKOTA,MN,55121
271,44.5121,-93.0648,,ECOLAB ENGINEERING CENTER,55121CLBNG940LO,940 LONE OAK RD,EAGAN,DAKOTA,MN,55121
273,44.5102,-93.0659,,CRAY RESEARCH INC,55121CRYRSCRAYR,655E LONE OAK DR,EAGAN,DAKOTA,MN,55121
274,44.5003,-93.0707,GOPHER RESOURCE LLC,GOPHER RESOURCE LLC,55121GPHRS3385S,685 YANKEE DOODLE RD,EAGAN,DAKOTA,MN,55121
275,44.5053,-93.0812,,HILEX CORP (DBA KIK MINNESOTA INC),55121HLXCR990AP,990 APOLLO RD,EAGAN,DAKOTA,MN,55121
277,44.51,-93.0909,,MIDWEST COCA-COLA BOTTLING CO,55121MDWST2750E,2750 EAGANDALE BLVD,EAGAN,DAKOTA,MN,55121
278,44.51,-93.0909,,MIDWEST COCA-COLA BOTTLING CO,55121MDWST2772E,2772 EAGANDALE BLVD,SAINT PAUL,DAKOTA,MN,55121
279,44.5117,-93.0856,,MATERIALS PROCESSING CORP,55121MTRLS2805W,2805 W SERVICES RD,EAGAN,DAKOTA,MN,55121
280,44.5026,-93.1002,,UNISYS CORP SEMICONDUCTOR OPERATIONS,55121NSYSC1500T,1500 TOWER VIEW RD,EAGAN,DAKOTA,MN,55121
281,44.513,-93.09,,UNISYS MATERIALS MANAGEMENT CENTER CSD,55121NSYSM1200T,1200 TRAPP RD,EAGAN,DAKOTA,MN,55121
282,44.5,-93.1,,PARAMAX SYSTEMS CORP UNISYS PARK CSD,55121NSYSN3333P,3333 PILOT KNOB RD,EAGAN,DAKOTA,MN,55121
283,44.512,-93.0825,,PEPSI-COLA BOTTLING CO EAGAN,55121PPSCL2755H,2755 HWY 55,EAGAN,DAKOTA,MN,55121
284,44.5156,-93.0909,,ERGOTRON INC.,55121RGTRN1181T,1181 TRAPP RD,EAGAN,DAKOTA,MN,55121
285,44.5136,-93.1133,CLEAN HARBORS INC,SAFETY-KLEEN SYSTEMS EAGAN (EAB),55121SFTYK3227T,3227 TERMINAL DR,EAGAN,DAKOTA,MN,55121
286,44.5122,-93.0907,,W.R. GRACE and CO. - CONN. GRACE CONSTRUCTION PRODUCTS,55121WRGRC1170E,1170 EAGAN INDUSTRIAL RD,EAGAN,DAKOTA,MN,55121
287,44.5037,-93.111,PACE GROUP INC,WATER HEATER INNOVATIONS INC.,55121WTRHT3107S,3107 SIBLEY MEMORIAL HWY,EAGAN,DAKOTA,MN,55121
288,44.4935,-93.1217,,FINISHING EQUIPMENT INC,55122FNSHN3640K,3640 KENNEBEC DR,SAINT PAUL,RAMSEY,MN,55122
289,44.513,-93.083,,ROSEMOUNT INC,55122RSMNT1256T,1256 TRAPP RD,EAGAN,DAKOTA,MN,55122
290,44.494,-93.0652,,MICROPARTS INC,55123MCRPR3680D,3680 DODD RD,EAGAN,DAKOTA,MN,55123
291,44.492,-93.0648,,WEST PUBLISHING CO,55123WSTPB3773H,610 OPPERMAN DR,EAGAN,DAKOTA,MN,55123
292,44.4356,-93.1119,,HANSON PIPE and PRODUCTS INC,55124HNSNP65515,6055 150TH ST W,APPLE VALLEY,DAKOTA,MN,55124
293,44.5516,-92.5745,,ECOWATER SYSTEMS INC.,55125CDYNC1890W,1890 WOODLANE DR,WOODBURY,WASHINGTON,MN,55125
294,44.5514,-92.5836,DEAN FOODS CO,DEAN FOODS NORTH CENTRAL LLC-WOODBURY,55125NRRSC1930W,1930 WOODDALE DR,WOODBURY,WASHINGTON,MN,55125
295,45.0405,-93.0855,,"CONTROL DATA CORP, ARDEN HILLS",55126CNTRL4201N,4201 N LEXINGTON AVE,SAINT PAUL,RAMSEY,MN,551266198
296,45.0351,-93.0836,,DELUXE CHECK PRINTERS INC,55126DLXCH1020W,1020 W CR F,SHOREVIEW,RAMSEY,MN,55126
297,45.0258,-93.0713,MINUTEMAN INTERNATIONAL INC,MINUTEMAN INTERNATIONAL MULTI-CLEAN DIV,55126MLTCL600CA,600 CARDIGAN RD,SHOREVIEW,RAMSEY,MN,55126
299,45.0425,-93.0404,,ELECTRONIC INDUSTRIES INC,55127LCTRN4CMME,400 COMMERCE CT,VADNAIS HEIGHTS,RAMSEY,MN,55127
300,45.071,-93.0315,SCHWING AMERICA INC,SCHWING AMERICA INC,55127SCHWN5900C,5900 CENTERVILLE RD,WHITE BEAR LAKE,RAMSEY,MN,55127
301,45.0501,-93.05,,SERVTRON CO,55127SRVTR410OA,410 OAK GROVE PKWY,VADNAIS HEIGHTS,RAMSEY,MN,55127
302,44.5929,-92.5825,,H B FULLER CO INDUSTRIAL COATINGS DIV,55128HBFLL2900G,2900 GRANADA LN,OAKDALE,WASHINGTON,MN,55128
307,44.5715,-93.0,,3M CO CENTER PILOT PLANTS,55144MCNTRI94AN,I-94 and MCKNIGHT RD,SAINT PAUL,RAMSEY,MN,551441000
308,44.5753,-93.035,,3M CO - ST. PAUL EASTSIDE SITE,55144MSNTP900BU,751 MENDOTA ST,SAINT PAUL,RAMSEY,MN,55106
309,44.5803,-93.0501,,3M CO ST PAUL INDUSTRIAL ABRASIVES,55144MSNTP935BU,935 BUSH AVE,SAINT PAUL,RAMSEY,MN,551441000
310,44.5958,-93.1,,H M SMYTH CO INC,55164HMSMY1085S,1085 SNELLING AVE NORTH,SAINT PAUL,RAMSEY,MN,55108
311,44.4524,-93.0125,,FLINT HILLS RESOURCES LP,55164KCHRFPOBOA,13155 COURTHOUSE BLVD,ROSEMOUNT,DAKOTA,MN,55068
312,44.46,-93.0225,KOCH INDUSTRIES INC,FLINT HILLS RESOURCES PINE BEND LLC,55164KCHRFPOBOX,13775 CLARK RD,ROSEMOUNT,DAKOTA,MN,55068
313,45.0015,-93.1215,,PAPER CALMENSON and CO,55164PPRCLHIGHW,2500 W COUNTY RD B,SAINT PAUL,RAMSEY,MN,55164
316,45.13,-93.2425,US TSUBAKI INC,BALLANTINE - DIV OF US TSUBAKI,55303BLLNT840MC,840 MCKINLEY ST -,ANOKA,ANOKA,MN,55303
317,45.1329,-93.2436,,FIRESTONE METAL PRODUCTS,55303CPPRS11LUN,1001 LUND BLVD,ANOKA,ANOKA,MN,55303
318,45.1155,-93.2216,VISTA OUTDOOR INC,FEDERAL CARTRIDGE CO,55303FDRLH900EH,900 EHLEN DR,ANOKA,ANOKA,MN,55303
320,45.121,-93.2212,NVENT,NVENT HOFFMAN,55303HFFMN1000N,1000 N ST,ANOKA,ANOKA,MN,55303
321,45.1202,-93.2227,NVENT,NVENT HOFFMAN,55303HFFMN900EH,2100 HOFFMAN WAY,ANOKA,ANOKA,MN,55303
322,45.2307,-93.4614,BRUNSWICK CORP,LIFE FITNESS A DIV OF BRUNSWICK CORP,55303LFFTN14150,14150 SUNFISH LAKE BLVD,RAMSEY,ANOKA,MN,55303
323,45.2307,-93.4614,,LIFE FITNESS CONSUMER DIV,55303LFFTN6043H,6043 HWY 10 NW,RAMSEY,ANOKA,MN,55303
324,45.1235,-93.23,,LAKELAND TOOL and ENGINEERING INC,55303LKLND2939S,2939 6TH AVE N,ANOKA,ANOKA,MN,55303
325,45.1322,-93.2525,,LUND INDUSTRIES INC,55303LNDND911LU,911 LUND BLVD,ANOKA,ANOKA,MN,55303
326,45.135,-93.261,,ALTRON INC,55303LTRNN6700I,6700 BUNKER LAKE BLVD NW,RAMSEY,ANOKA,MN,55303
327,45.133,-93.24,,MENTOR CORP,55303MNTRM800LU,800 LUND BLVD,ANOKA,ANOKA,MN,55303
328,45.1321,-93.2459,MATE PRECISION TOOLING,MATE PRECISION TOOLING,55303MTPNC6400I,1295 LUND BLVD,ANOKA,ANOKA,MN,55303
329,45.1313,-93.2626,,AIRGAS NORTH CENTRAL INC,55303NRTHR6650H,6650 HWY 10 NW,ANOKA,ANOKA,MN,553034599
330,45.1155,-93.2326,,PROFESSIONAL PLATING INC,55303PRFSS2625N,2625 9TH AVE N,ANOKA,ANOKA,MN,55303
331,45.1249,-93.2503,,IMI CORNELIUS INC,55303THCRNONECO,ONE CORNELIUS PL,ANOKA,ANOKA,MN,553031592
332,45.135,-93.2645,,VISION-EASE LENS INC,55303VSNSL7000S,7000 SUNWOOD DR NW,RAMSEY,ANOKA,MN,55303
333,45.16,-93.14,,KNAPP WOODWORKING INC,55304KNPPW16430,16430 HWY 65 NE,HAM LAKE,ANOKA,MN,55304
334,44.4447,-93.1848,,CHART INDUSTRIES INC,55306CHRTN3505C,3505 COUNTY RD 42 W,BURNSVILLE,DAKOTA,MN,55306
335,44.4539,-93.1858,CLIO HOLDINGS,PRINCESS MARBLE ACQUISITION LLC,55306RBCSS14255,14255 SOUTHCROSS DR W,BURNSVILLE,DAKOTA,MN,55306
336,45.23,-93.523,LIBERTY DIVERSIFIED INTERNATIONAL,LIBERTY PAPER INC,55308LBRTY13500,13500 LIBERTY LANE,BECKER,SHERBURNE,MN,55308
337,45.22,-93.534,XCEL ENERGY,XCEL ENERGY SHERBURNE COUNTY GENERATING PLANT,55308NRTHR13999,13999 INDUSTRIAL BLVD,BECKER,SHERBURNE,MN,55308
338,45.1956,-93.4352,CARGILL INC,CARGILL ANIMAL NUTRITION,55309CRGLL100CO,100 COUNTY RD 43,BIG LAKE,SHERBURNE,MN,55309
344,45.0,-92.27,BOSTON SCIENTIFIC CORP,BOSTON SCIENTIFIC WEAVER LAKE CAMPUS,55311BSTNS2SCIM,2 SCIMED PL,MAPLE GROVE,HENNEPIN,MN,55311
345,45.101,-93.5252,,HONEYWELL ELECTRONIC MATERIALS INC,55313NVRSL200CE,200 CENTENNIAL DR,BUFFALO,WRIGHT,MN,55313
346,44.4615,-94.3528,,BUFFALO LAKE ADVANCED BIOFUELS,55314MNNST777BO,777 BORDEN AVE W,BUFFALO LAKE,RENVILLE,MN,55314
347,44.8613,-93.5541,,PARKER HANNIFIN CORP,55317CMMRC7850P,7850 PARK DR,CHANHASSEN,CARVER,MN,55317
349,44.573,-93.3342,,GENERAL MILLS INC CHANHASSEN PLANT,55317GNRLM8AUDU,8000 AUDUBON RD,CHANHASSEN,CARVER,MN,55317
350,44.5135,-93.3542,,PARKER HANNIFIN CORP,55317PRKRH2860W,2860 WATER TOWER PL,CHANHASSEN,CARVER,MN,55317
351,44.5145,-93.3045,,PRESS INC,55317PRSSN18780,18780 W 78TH ST,CHANHASSEN,HENNEPIN,MN,55317
352,44.511,-93.3351,,QUANTUM CONTROLS INC,55317QNTMC1691L,1691 LAKE DR W,CHANHASSEN,CARVER,MN,55317
353,44.5039,-93.3207,,ROBERTS AUTOMATIC PRODUCTS INC,55317RBRTS880LA,880 LAKE DR,CHANHASSEN,CARVER,MN,55317
354,44.5118,-93.3222,EMERSON ELECTRIC CO,EMERSON AUTOMATION SOLUTIONS ROSEMOUNT INC,55317RSMNT8200M,8200 MARKET BLVD,CHANHASSEN,CARVER,MN,55317
355,44.5147,-93.31,,AUTOMATED BUILDING COMPONENTS,55317TMTDB18800,18800 WEST 78TH STREET,CHANHASSEN,HENNEPIN,MN,55317
356,44.5117,-93.3543,,PROTECH INTERCONNECT SOLUTIONS LLC,55318CRCTB4300P,4300 PEAVEY RD,CHASKA,CARVER,MN,55318
357,44.5017,-93.3432,,FSI INTERNATIONAL,55318FSNTR322LA,322 LAKE HAZELTINE DR,CHASKA,CARVER,MN,553181096
358,44.4945,-93.36,,BECKMAN COULTER INC,55318KLLST1000L,1000 LAKE HAZELTINE DR,CHASKA,CARVER,MN,553181084
359,44.5105,-93.3655,LANDEC CORP,LIFECORE BIOMEDICAL LLC,55318LFCRB3515L,3515 LYMAN BLVD,CHASKA,CARVER,MN,55318
360,44.5025,-93.3447,GREATBATCH LTD,LAKE REGION MANUFACTURING INC DBA LAKE REGION MEDICAL,55318LKRGN340LA,340 LAKE HAZELTINE DR,CHASKA,CARVER,MN,55318
361,44.5151,-93.3636,VALENT USA CORP,MCLAUGHLIN GORMLEY KING,55318MCLGH4001P,4001 PEAVEY RD,CHASKA,CARVER,MN,55318
362,44.5521,-93.355,MICHAEL FOODS INC,NORTHERN STAR CO,55318MMMTH101W8,101 W 82ND ST,CHASKA,CARVER,MN,55318
363,44.5043,-93.3539,SUPER RADIATOR COILS,SUPER RADIATOR COILS,55318MNNTN104PE,104 PEAVEY RD,CHASKA,CARVER,MN,55318
364,44.5052,-93.3853,,NORDIC TRACK,55318NRDCT141JO,141 JONATHON BLVD N,CHASKA,CARVER,MN,55318
365,44.5112,-93.3529,,PEMSTAR INC.,55318PMSTR426NR,4260 NOREX DR,CHASKA,CARVER,MN,55318
366,44.5055,-93.3531,,PR INDUSTRIES INC,55318PRNDS4311P,4311 PEAVEY RD,CHASKA,CARVER,MN,55318
367,44.5045,-93.3352,,QUALI TECH INC DIV 6,55318QLTCH150JO,150 JONATHAN BLVD N,CHASKA,CARVER,MN,55318
368,44.504,-93.3346,,QUALITECH INC,55318QLTCH318LA,318 LAKE HAZELTINE DR,CHASKA,CARVER,MN,55318
369,44.533,-93.363,APEX INTERNATIONAL MFG INC,APEX INTERNATIONAL,55318SFTSP134CO,134 COLUMBIA CT,CHASKA,CARVER,MN,55318
372,45.0448,-94.1105,,CTS CORP CONNECTOR DIV,55321CTSCR400CO,400 COKATO ST,COKATO,WRIGHT,MN,55321
373,45.0547,-94.2438,,POLLOCK MANUFACTURING INC,55324PLLCK26192,26192 660TH AVE,DARWIN,MEEKER,MN,55324
374,45.0438,-94.1837,,NORTRONICS CO INC,55325NRTHR145SO,145 S 3RD ST PO BOX 386,DASSEL,MEEKER,MN,553250386
381,45.1902,-93.3517,EMERSON ELECTRIC CO,TESCOM,55330TSCMC12616,12616 IND US TRIAL BLVD,ELK RIVER,SHERBURNE,MN,55330
382,44.3314,-94.12,MICHAEL FOODS INC,M G WALDBAUM,55334MGWLDHWY51,120 TOWER ST S,GAYLORD,SIBLEY,MN,55334
383,44.4609,-94.0921,ARCHER DANIELS MIDLAND CO,ADM ANIMAL NUTRITION,55336CNSLD1011E,1011 ELLIOTT AVE,GLENCOE,MCLEOD,MN,55336
384,44.463,-94.1044,,MILLER MANUFACTURING CO,55336NRCTR14001,1400 13TH ST W,GLENCOE,MCLEOD,MN,55336
385,44.4603,-94.0902,,ASSOCIATED MILK PRODUCERS INC,55336SSCTD818E9,818 E 9TH ST,GLENCOE,MCLEOD,MN,55336
386,44.4619,-94.0941,SENECA FOODS CORP,SENECA FOODS,55336THPLL101W8,101 W 8TH ST -,GLENCOE,MCLEOD,MN,55336
388,44.4805,-93.1707,XCEL ENERGY,XCEL ENERGY BLACK DOG GENERATING PLANT,55337BLCKD1400E,1400 E BLACK DOG RD,BURNSVILLE,DAKOTA,MN,55337
390,44.4726,-93.1524,,BOTTLING GROUP LLC D/B/A PEPSI BEVERAGES CO,55337PPSCL1300E,11601 12TH AVE S,BURNSVILLE,DAKOTA,MN,55337
391,44.4437,-93.184,UNITED TECHNOLOGIES CORP,ROSEMOUNT AEROSPACE INC,55337RSMNT14300,14300 JUDICIAL RD,BURNSVILLE,DAKOTA,MN,55306
394,45.0302,-93.3224,,ALPANA ALUMINUM PRODS,55340LPNLM3800C,3800 C R 116,HAMEL,HENNEPIN,MN,55340
395,45.0333,-93.3535,,QX INC,55340QXNCX2705W,2705 W HWY 55,HAMEL,HENNEPIN,MN,55340
396,45.0345,-93.354,,TEMROC METALS INC,55340TMRCM4375W,4375 WILLOW DR,HAMEL,HENNEPIN,MN,55340
397,44.3749,-94.4354,,SCHWEISS DISTRIBUTING INC,55342SCHWS72121,72121 470TH ST,HECTOR,RENVILLE,MN,55342
398,45.2512,-93.251,,CROWN FIXTURES INC,55343CRWNF62012,620 12TH AVE SOUTH,HOPKINS,HENNEPIN,MN,55343
399,44.5537,-93.2326,,EDCO PRODUCTS INC,55343DCPRD845EX,8700 EXCELSIOR BLVD,HOPKINS,HENNEPIN,MN,55343
400,44.5455,-93.0253,,HONEYWELL ADVANCED CIRCUITS INC,55343DVNCC56016,560 16TH AVE S,HOPKINS,HENNEPIN,MN,55343
401,44.561,-93.2415,,ADVANCED FLEX INC PLANT 3,55343FNCXX5400O,5400 OPPORTUNITY CT,MINNETONKA,HENNEPIN,MN,55343
402,44.5405,-93.2502,,HOLADAY CIRCUITS INC,55343HLDYC11126,11126 BREN RD W,MINNETONKA,HENNEPIN,MN,55343
403,44.5537,-93.2333,,ALLIANT TECHSYSTEMS INC HOPKINS FACILITY,55343HNYWL600SE,600 2ND ST NE,HOPKINS,HENNEPIN,MN,553438384
404,44.5451,-93.2455,,KANGAS ENAMELING,55343KNGSN60912,609 12TH AVE S,HOPKINS,HENNEPIN,MN,55343
405,44.55,-93.2514,,MACTAC ENGINEERED PRODUCTS,55343MCTCN53515,535 15TH AVE S,HOPKINS,HENNEPIN,MN,55343
406,44.33,-93.1648,,AMERICAN MEDICAL SYSTEMS,55343MRCNM10700,10700 BREN RD W,MINNETONKA,HENNEPIN,MN,55343
407,44.33,-93.1648,,AMERICAN MEDICAL SYSTEMS INC,55343MRCNM11001,11001 BREN RD E,MINNETONKA,HENNEPIN,MN,55343
408,44.5453,-93.2536,,METRO MARK INC,55343MTRMR11574,11574 ENCORE CIRCLE,MINNETONKA,HENNEPIN,MN,55343
409,44.5848,-93.1549,,NORTHERN TELECOM,55343NRTHR9701D,9701 DATA PARK,MINNETONKA,HENNEPIN,MN,55343
411,44.5504,-93.2523,,SHANNON GROUP INC TONKA DIV,55343SHNNN11301,11301 W 47TH ST,HOPKINS,HENNEPIN,MN,55343
412,44.5344,-93.2621,SUEZ TREATMENT SOLUTIONS INC,SUEZ WTS SOLUTIONS USA INC,55343SMNCS5951C,5951 CLEARWATER DR,MINNETONKA,HENNEPIN,MN,55343
413,44.5504,-93.2528,TK PRODUCTS,SIERRA CORP,55343SRRCR11401,11400 W 47TH ST,MINNETONKA,HENNEPIN,MN,55343
414,44.5133,-93.2855,,BIRCHWOOD LABORATORIES INC,55344BRCHW7900F,7900 FULLER RD,EDEN PRAIRIE,HENNEPIN,MN,553442195
415,44.5246,-93.2428,,CONTROL DATA CORP,55344CNTRL6740S,6740 SHADY OAK RD,EDEN PRAIRIE,HENNEPIN,MN,55344
416,44.531,-93.24,,MACDERMID INC EDEN PRAIRIE,55344CRCTS9805H,9805 HAMILTON AVENUE,EDEN PRAIRIE,HENNEPIN,MN,55344
417,44.5224,-93.2403,,DOUGLAS CORP,55344DGLSC9650V,9650 VALLEYVIEW RD,EDEN PRAIRIE,HENNEPIN,MN,55344
418,44.5144,-93.26,,APPLIED COATING TECHNOLOGY INC PLANT 1,55344FTMRK12150,12150 TECHNOLOGY DRIVE,EDEN PRAIRIE,HENNEPIN,MN,55344
419,44.513,-93.273,,GENERAL MILLS,55344GNRLM7752M,7752 MITCHELL RD HENNEPIN,EDEN PRAIRIE,HENNEPIN,MN,55344
420,44.521,-93.242,,GUSTAFSON LLC,55344GSTFS7490G,7490 GOLDEN TRIANGLE DR,EDEN PRAIRIE,HENNEPIN,MN,55344
421,45.075,-93.163,HONEYWELL INTERNATIONAL INC,HONEYWELL AEROSPACE COON RAPIDS,55344HNYWL8840E,8840 EVERGREEN BLVD,COON RAPIDS,ANOKA,MN,55433
422,44.5312,-93.242,BODYCOTE THERMAL PROCESSING INC,BODYCOTE THERMAL PROCESSING,55344LNDBR10150,10150 CROSSTOWN CIR,EDEN PRAIRIE,HENNEPIN,MN,55344
424,44.514,-93.2605,,EMERSON CONTROL TECHNIQUES,55344MRSNC12005,12005 TECHNOLOGY DR,EDEN PRAIRIE,HENNEPIN,MN,55344
425,44.5242,-93.2415,,PHILLIPS and TEMRO INDUSTRIES INC.,55344PHLLP9700W,9700 W 74TH ST,EDEN PRAIRIE,HENNEPIN,MN,55344
426,44.5303,-93.2421,,PHYSICAL ELECTRONICS PHYSICAL ELECTRONICS DIV,55344PRKNL6509F,6509 FLYING CLOUD DR,EDEN PRAIRIE,HENNEPIN,MN,55344
427,45.1644,-93.4654,,POWER PROCESS EQUIPMENT,55344PWRPR7630C,7630 COMMERCE WAY,EDEN PRAIRIE,HENNEPIN,MN,55344
428,44.5252,-93.2424,,RELIANCE MOTION CONTROL,55344RLNCM6950W,6950 WASHINGTON AVE S,EDEN PRAIRIE,HENNEPIN,MN,55344
429,44.5118,-93.3222,EMERSON ELECTRIC CO,EMERSON AUTOMATION SOLUTIONS ROSEMOUNT INC,55344RSMNT12001,12001 TECHNOLOGY DR,EDEN PRAIRIE,HENNEPIN,MN,55344
430,44.522,-92.2636,,ROSEMOUNT INC,55344RSMNT7676E,7676 EXECUTIVE DR,EDEN PRAIRIE,HENNEPIN,MN,55344
431,44.5137,-93.2749,,EATON MDH INC,55344TNCRP15151,14900 TECHNOLOGY DR,EDEN PRAIRIE,HENNEPIN,MN,55344
432,44.5124,-93.2824,,ITT SCHADOW,55344TTSCH8081W,8081 WALLACE RD,EDEN PRAIRIE,HENNEPIN,MN,55344
433,44.5233,-93.2355,,VIKING PRESS INC,55344VKNGP7000W,7000 WASHINGTON AVE S,MINNEAPOLIS,HENNEPIN,MN,55344
434,44.561,-93.2825,,ST JUDE MEDICAL DAIG DIV,55345DGCRP14901,14901 MINNETONKA INDL RD,MINNETONKA,HENNEPIN,MN,553452126
435,44.5655,-90.2714,,HONEYWELL ADVANCED CIRCUITS INC,55345DVNCC15102,15102 MINNETONKA INDL RD,MINNETONKA,HENNEPIN,MN,55345
436,44.561,-93.2855,,IFLEX INC,55345DVNCD15115,15101 MINNETONKA IND RD,MINNETONKA,HENNEPIN,MN,55345
437,44.5614,-93.2824,,"PRECISION DIVERSIFIED, IND INC",55345PRCSN15285,15285 MINNETONKA BLVD,MINNETONKA,HENNEPIN,MN,55345
438,44.5328,-93.2704,LOGIC PD INC,LOGIC PD INC,55346MCRDY6201B,6201 BURY DR,EDEN PRAIRIE,HENNEPIN,MN,55346
439,45.0341,-94.0336,,DURA SUPREME,55349DRSPR300DU,300 DURA DR,HOWARD LAKE,WRIGHT,MN,55349
440,45.0339,-94.0421,,MUNSON LAKES NUTRITION LLC,55349LNDLK917SI,917 6TH ST,HOWARD LAKE,WRIGHT,MN,55349
443,44.52,-94.22,,GOEBEL FIXTURE CO INC,55350GBLFX528DA,528 DALE ST,HUTCHINSON,MCLEOD,MN,55350
444,44.5331,-94.211,,HAUGEN FURNITURE CO,55350HGNFR25MIC,25 MICHIGAN AVE,HUTCHINSON,MCLEOD,MN,55350
445,44.52,-94.23,,MINNESOTA SPECIALTY YEAST LLC,55350HRCLS35ADA,35 ADAMS ST NE,HUTCHINSON,MCLEOD,MN,55350
446,44.5356,-94.2115,HUTCHINSON TECHNOLOGY INC,HUTCHINSON TECHNOLOGY INC,55350HTCHN40WES,40 W HIGHLAND PARK,HUTCHINSON,MCLEOD,MN,55350
447,44.5343,-94.2258,,HUTCHINSON MANUFACTURING INC,55350HTCHNHWY22,720 HWY 7 W,HUTCHINSON,MCLEOD,MN,55350
448,44.5249,-94.2132,3M CO,3M CO-HUTCHINSON,55350MMGMDHIGHW,905/915 ADAMS ST SE,HUTCHINSON,MCLEOD,MN,55350
449,44.534,-94.2249,,NEW DIMENSION PLATING INC,55350NWDMN5403R,540 3RD AVE NW,HUTCHINSON,MCLEOD,MN,55350
450,44.5302,-94.0216,,AMEREQUIP SCHWARTZ DIV,55354MRQPS129SP,129 S PINE ST,LESTER PRAIRIE,MCLEOD,MN,55354
451,44.5301,-94.0211,,POLY FOAM INC,55354PLYFM116PI,116 PINE ST S,LESTER PRAIRIE,MCLEOD,MN,553540218
452,45.0616,-94.3124,,CUSTOM PRODUCTS OF LITCHFIELD INC,55355CSTMPSOUTH,1715 SIBLEY AVE SOUTH,LITCHFIELD,MEEKER,MN,55355
454,45.0729,-94.303,,"INNOVEX, INC",55355LTCHFONEPR,44 PRECISION DR,LITCHFIELD,MEEKER,MN,55355
455,45.073,-94.3145,,ANDERSON CHEMICAL CO,55355NDRSN405SO,405 S HUBBARD,LITCHFIELD,MEEKER,MN,55355
456,45.085,-94.3218,,PALM INDUSTRIES INC,55355PLMNDBOX56,61385 US HWY 12,LITCHFIELD,MEEKER,MN,55355
457,45.0735,-94.3141,,TOWMASTER INC,55355TWMST61318,61318 W HWY 12,LITCHFIELD,MEEKER,MN,55355
458,45.573,-93.373,,WEST TECH INC,55356VNDLN2725W,2725 WAYZATA BLVD,LONG LAKE,HENNEPIN,MN,55356
459,44.593,-93.353,,WASHINGTON SCIENTIFIC IND LONG LAKE PLANT,55356WSHNG2605W,2605 W WAYZATA BLVD,LONG LAKE,HENNEPIN,MN,55356
460,45.1402,-93.59,,SUN PATIO/ WARRIOR BOATS,55358SNPTN400HW,400 HWY 55,MAPLE LAKE,WRIGHT,MN,55358
461,45.0027,-93.3925,,ELECTROCHEMICALS INC,55359CRCTC5129I,5129 INDUSTRIAL ST,MAPLE PLAIN,HENNEPIN,MN,55359
462,45.0043,-93.3953,,MACDERMID ENTHONE AMERICA LLC,55359LCTRC5630P,5630 PIONEER CREEK DR,MAPLE PLAIN,HENNEPIN,MN,55359
463,45.0047,-93.3948,,INNOVEX INC.,55359NNVXN5540P,5540 PIONEER CREEK DR,MAPLE PLAIN,HENNEPIN,MN,55359
466,45.182,-90.4738,,BONDHUS CORP,55362BNDHS1400E,1400 E BROADWAY,MONTICELLO,WRIGHT,MN,55362
468,45.1814,-93.4751,,CARGILL KITCHEN SOLUTIONS INC,55362SNNYF207W4,206 W 4TH ST,MONTICELLO,WRIGHT,MN,55362
469,45.1728,-93.4725,,STANDARD IRON and WIRE WORKS INC,55362STNDR207DU,207 DUNDAS RD,MONTICELLO,WRIGHT,MN,55362
470,45.1735,-93.4706,TWIN CITY DIE CASTINGS CO,TWIN CITY DIE CASTINGS CO,55362TWNCT520CH,520 CHELSEA RD,MONTICELLO,WRIGHT,MN,55362
471,45.0354,-93.5626,,KNIGHT COLORS and CHEMICALS CO,55363KNGHT2515U,2515 US HWY 12 SW,MONTROSE,WRIGHT,MN,55363
472,44.562,-93.4,,CR MANUFACTURING CO,55364CRMFG5338S,5338 SHORELINE BLVD,MOUND,HENNEPIN,MN,55364
473,45.0722,-93.252,,ZENITH PRODUCTS CO,55364ZNTHP9177Z,9177 ZACHARY LN N,MAPLE GROVE,HENNEPIN,MN,553694002
474,44.4548,-93.5055,BONGARDS' CREAMERIES,BONGARDS' CREAMERIES,55368BNGRD13200,13200 COUNTY RD 51,NORWOOD,CARVER,MN,55368
475,44.4605,-93.5538,,OAK GROVE DAIRY,55368KGRVD123UN,123 UNION ST,NORWOOD YOUNG AMERICA,CARVER,MN,55368
477,45.0641,-93.2352,,CERAM-TRAZ CORP CERAMIC INDL COATINGS,55369CRMTR325HW,325 HWY 81,OSSEO,HENNEPIN,MN,55369
480,45.0659,-93.2505,,UNIVERSAL PLASTICS INC,55369NVRSL10751,10751 89TH AVE N,MAPLE GROVE,HENNEPIN,MN,55369
481,45.0655,-93.2519,ADVANCED CIRCUITS INC,ADVANCED CIRCUITS MINNESOTA,55369NVRSL8860Z,8860 ZACHARYLANE,MAPLE GROVE,HENNEPIN,MN,55369
482,45.05,-93.27,,SCIMED LIFE SYS INC,55369SCMDL6655W,6655 WEDGWOOD RD,MAPLE GROVE,HENNEPIN,MN,55311
483,45.053,-93.2419,,SILENT KNIGHT,55369SLNTK7550M,7550 MERIDIAN CIR,MAPLE GROVE,HENNEPIN,MN,55369
484,45.0706,-93.2448,,WELLS CONCRETE,55369SPNCR10655,10655 COUNTY RD 81,MAPLE GROVE,HENNEPIN,MN,55369
485,45.0521,-93.2414,LSC COMMUNICATIONS INC,LSC COMMUNICATIONS / MAPLE GROVE,55369THPRN7401K,7401 KILMER LN,MAPLE GROVE,HENNEPIN,MN,55369
487,44.44,-94.07,,PLATO WOODWORK INC,55370PLTWD2003R,200 3RD ST SW,PLATO,MCLEOD,MN,55370
488,45.331,-93.3523,,CRYSTAL CABINET WORKS INC -- PRINCETON,55371CRYST1100C,1100 CRYSTAL DR,PRINCETON,SHERBURNE,MN,55371
489,45.334,-93.3632,,CRYSTAL COMMERCIAL DIV,55371CRYST16081,1608 12TH ST N,PRINCETON,SHERBURNE,MN,55371
490,45.3245,-93.36,,US DISTILLED PRODS CO,55371SDSTL16071,1607 S 12TH ST,PRINCETON,SHERBURNE,MN,55371
491,45.3333,-93.3636,,SMITH SYSTEM MFG CO,55371SMTHS1100S,1100 S 10TH ST,PRINCETON,MILLE LACS,MN,55371
492,45.3332,-93.3122,,WESTLING MFG,55371WSTLN705HY,705 OLD HWY 18 S,PRINCETON,MILLE LACS,MN,55371
494,45.0705,-93.44,,DIVERSIFOAM PRODUCTS,55373DVRSF9091C,9091 COUNTY RD 50,ROCKFORD,HENNEPIN,MN,55373
497,45.1231,-93.3328,,FLEX-O-PRINT,55374FLXPR14329,14329 NORTHDALE BLVD,ROGERS,HENNEPIN,MN,55374
499,45.1127,-93.3221,GRACO INC,GRACO MINNESOTA INC-KOCH CENTER,55374GRCNC20500,20500 DAVID KOCH AVE,ROGERS,HENNEPIN,MN,55374
500,44.463,-93.213,,PROCHASKA LLC,55378CHSKC12502,12502 XENWOOD AVE S,SAVAGE,SCOTT,MN,55378
501,44.4642,-93.2054,,CONTINENTAL MACHINES INC.,55378CNTNN5505W,5505 W 123RD ST,SAVAGE,SCOTT,MN,553781299
502,44.4631,-93.2128,,FABCON INC,55378FBCNN6111W,6111 WEST HWY 13,SAVAGE,SCOTT,MN,553781298
503,45.464,-93.2136,,HEAT-N-GLO,55378HTNGL6665W,6665 W HWY 13,SAVAGE,SCOTT,MN,55378
504,44.4706,-93.1952,KOCH INDUSTRIES INC,FLINT HILLS RESOURCES PINE BEND LLC SAVAGE,55378KCHMT12101,12101 YOSEMITE AVE S,SAVAGE,SCOTT,MN,55378
505,44.4646,-93.201,SILGAN HOLDINGS INC,SILGAN CONTAINERS MANUFACTURING CORP,55378MRCNN12130,12130 LYNN AVE S,SAVAGE,SCOTT,MN,55378
506,44.3,-93.193,,PILLSBURY GREEN GIANT FILM CONVERTING,55378PLLSB12130,12130 LYNN AVE S,SAVAGE,SCOTT,MN,55378
508,44.4729,-93.2705,CONKLIN CO INC,CONKLIN CO INC,55379CNKLN551VA,551 VALLEY PARK DR,SHAKOPEE,SCOTT,MN,55379
509,44.4552,-93.31,GAVILON FERTILIZER LLC,MICROSOURCE LLC,55379CRPMT7632H,7632 HWY 101,SHAKOPEE,SCOTT,MN,55379
510,44.4751,-93.2841,SAINT-GOBAIN CORP,CERTAINTEED SHAKOPEE,55379CRTNT3303E,3303 E 4TH AVE,SHAKOPEE,SCOTT,MN,55379
511,44.4721,-93.2708,,ADC TELECOMMUNICATIONS INC,55379DCTLC1000V,1000 VALLEY PARK DR,SHAKOPEE,SCOTT,MN,55379
512,44.4715,-93.2725,TE CONNECTIVITY LTD,TYCO ELECTRONICS,55379DCTLC1187P,1187 PARK PL,SHAKOPEE,SCOTT,MN,55379
513,44.4747,-93.2748,KURITA AMERICA HOLDINGS INC,FREMONT INDUSTRIES LLC,55379FRMNT4400V,4400 VALLEY INDUSTRIAL BLVD N,SHAKOPEE,SCOTT,MN,55379
514,44.4738,-93.2545,,AGGREGATE INDUSTRIES - SHAKOPEE READY MIX,55379GGRGT681HI,6801 HWY 101,SHAKOPEE,SCOTT,MN,55379
515,44.4752,-93.2752,ANCHOR GLASS CONTAINER CORP,ANCHOR GLASS CONTAINER CORP-SHAKOPEE,55379NCHRG4108V,4108 VALLEY IND US TRIAL BLVD N,SHAKOPEE,SCOTT,MN,55379
516,44.4756,-93.2819,,INLAND CONTAINER CORP,55379NLNDC3900S,3900 STATE HWY 101,SHAKOPEE,SCOTT,MN,55379
517,44.475,-93.3215,,RAHR MALTING CO,55379RHRML800WE,800 W 1ST AVE,SHAKOPEE,SCOTT,MN,55379
518,44.4734,-93.2717,QUAD/GRAPHICS INC,QG PRINTING II CORP,55379SHKPV511SV,5101 S VALLEY INDUSTRIAL BLVD,SHAKOPEE,SCOTT,MN,55379
519,44.4744,-93.2742,,ASHLAND DISTRIBUTION CO,55379SHLND4401V,4401 VALLEY INDUSTRIAL BLVD,SHAKOPEE,SCOTT,MN,55379
520,44.4717,-93.2713,,TSUMURA INTL,55379TSMRN1000V,1000 VALLEY PARK DR,SHAKOPEE,SCOTT,MN,55379
526,44.5019,-93.4719,ELKAY MANUFACTURING CO,ELKAY WOOD PRODUCTS CO,55387MDLLN180IN,180 INDUSTRIAL BLVD,WACONIA,CARVER,MN,55387
527,44.5031,-93.35,,MANUS PRODUCTS INC,55387MNSPR866IN,866 INDUSTRIAL BLVD W,WACONIA,CARVER,MN,55387
528,44.51,-93.47,,PRO-TECH INC,55387PRTCH902SO,902 S PINE ST,WACONIA,CARVER,MN,55387
530,45.035,-93.5827,,KNIGHT COLORS and CHEMICALS CO,55390KNGHT810PA,810 PACIFIC AVE,WAVERLY,WRIGHT,MN,55390
531,44.57,-94.04,,DAIRY FARMERS OF AMERICA INC,55395MDMRC3111S,311 1ST ST N,WINSTED,MCLEOD,MN,55395
532,44.3226,-94.2012,,HEARTLAND CORN PRODUCTS,55396HRTLNHWY19,53331 STATE HIGHWAY 19 EAST,WINTHROP,SIBLEY,MN,55396
533,44.3226,-94.2146,DAIRY FARMERS OF AMERICA INC,DAIRY FARMERS OF AMERICA INC,55396MDMRC212EA,212 E 1ST ST,WINTHROP,SIBLEY,MN,55396
534,44.1806,-92.4107,DAIRY FARMERS OF AMERICA INC,DAIRICONCEPTS LP,55396MDMRCNORTH,1313 N STAR DR,ZUMBROTA,GOODHUE,MN,55992
535,44.4518,-94.55,,TINO'S ITALIAN SPECIALTIES,55397TNSTL301IN,301 INDL BLVD,YOUNG AMERICA,CARVER,MN,55397
538,44.5903,-93.1311,,WEATHER-RITE LLC,55401WTHRR616N5,616 N 5TH ST,MINNEAPOLIS,HENNEPIN,MN,55401
539,44.5837,-93.1654,WANNER ENGINEERING INC,WANNER ENGINEERING INC,55403WNNRN124CH,1204 CHESTNUT AVE,MINNEAPOLIS,HENNEPIN,MN,55403
540,44.573,-93.15,,BYSTROM BROTHERS INC,55404BYSTR2200S,2200 SNELLING AVE SOUTH,MINNEAPOLIS,HENNEPIN,MN,55404
541,44.5841,-93.1732,,A and L LABORATORIES INC,55405LLBRT1001G,1001 GLENWOOD AVE,MINNEAPOLIS,HENNEPIN,MN,554051493
542,44.575,-93.173,,PRECISION PLATING INC,55405PRCSN230NO,230 GIRARD AVE N,MINNEAPOLIS,HENNEPIN,MN,55405
543,44.5646,-93.1403,,BOKER'S INC,55406BKRSN3104S,3104 SNELLING AVE S,MINNEAPOLIS,HENNEPIN,MN,55406
544,44.5716,-93.1357,,FLOUR CITY ARCHITECTURAL METALS,55406FLRCT26372,2637 27TH AVE S,MINNEAPOLIS,HENNEPIN,MN,55406
545,44.5715,-93.1341,,H and B ELEVATORS INC.,55406HNSTN26293,2629 30TH AVE S,MINNEAPOLIS,HENNEPIN,MN,55406
546,44.5715,-93.133,,HIAWATHA METALCRAFT BLDG # 2,55406HWTHM26313,2631 31ST AVE S,MINNEAPOLIS,HENNEPIN,MN,55406
547,44.5715,-93.133,,HIAWATHA METALCRAFT,55406HWTHP3119E,3119 E 26TH ST,MINNEAPOLIS,HENNEPIN,MN,55406
548,44.5555,-93.134,,PURINA MILLS LLC,55406PRNML3901H,3901 HIAWATHA AVE S,MINNEAPOLIS,HENNEPIN,MN,55406
549,44.56,-93.25,,DAYTON ROGERS MANUFACTURING CO,55407DYTNR28241,2824 13TH AVE SO,MINNEAPOLIS,HENNEPIN,MN,55407
550,44.5707,-93.1444,,SMITH FOUNDRY CO,55407SMTHF1855E,1855 E 28TH ST,MINNEAPOLIS,HENNEPIN,MN,55407
551,44.5708,-93.1718,,MIRROR FACTORY INC,55408GYTST2744L,2744 LYNDALE AVE S,MINNEAPOLIS,HENNEPIN,MN,55408
552,44.5657,-93.1634,,NICO PRODUCTS INC,55408NCPRD29291,2929 FIRST AVE S,MINNEAPOLIS,HENNEPIN,MN,55408
555,45.0051,-93.1642,G HOLDINGS INC,GAF BUILDING MATERIALS CORP,55411BLDNG50LOW,50 LOWRY AVE N,MINNEAPOLIS,HENNEPIN,MN,55411
557,45.0,-93.1604,VOGEL PAINT INC,DIAMOND VOGEL-NORTH INC,55411DMNDV2020N,2020 N 2ND ST,MINNEAPOLIS,HENNEPIN,MN,55411
558,45.0039,-93.1649,,GRAPHICS UNLIMITED INC,55411GRPHC3000S,3000 2ND ST NORTH,MINNEAPOLIS,HENNEPIN,MN,55411
559,45.0044,-93.1634,,JAPS/OLSON CO,55411JPSLS30NOR,30 N 31ST AVE,MINNEAPOLIS,HENNEPIN,MN,55411
561,44.5959,-93.1709,DAIRY FARMERS OF AMERICA INC,KEMPS LLC,55411MRGLD420WE,420 W BROADWAY,MINNEAPOLIS,HENNEPIN,MN,554112710
562,44.5953,-93.1625,PIONEER METAL FINISHING LLC,PIONEER METAL FINISHING,55411PNRMT1717W,1717 W RIVER RD,MINNEAPOLIS,HENNEPIN,MN,55411
563,45.0128,-93.1656,,ILLBRUCK FOAMTEC INC.,55412LLBRC3800W,3800 WASHINGTON AVE N,MINNEAPOLIS,HENNEPIN,MN,554122142
564,45.014,-93.1711,,FLAME METALS MINNEAPOLIS PLANT,55412NRTHW4056W,4056 WASHINGTON AVE N,MINNEAPOLIS,HENNEPIN,MN,55412
565,45.013,-93.1652,,FEDERAL FOAM TECHNOLOGIES INC,55412RTXND3558S,3558 2ND ST N,MINNEAPOLIS,HENNEPIN,MN,554122608
566,45.0003,-93.1246,,BUREAU OF ENGRAVING INC ELECTRONICS GROUP,55413BRFNG3311B,3311 BROADWAY ST NE,MINNEAPOLIS,HENNEPIN,MN,554131791
567,44.5848,-93.1549,,PARKER HANNIFIN CORP GRESEN HYDRAULICS,55413DNCRP600HO,600 HOOVER ST NE,MINNEAPOLIS,HENNEPIN,MN,55413
568,44.5955,-93.135,,DAIRY FRESH CO,55413DRYFR2112B,2112 BROADWAY ST NE,MINNEAPOLIS,HENNEPIN,MN,55413
569,45.0,-93.1248,,DAVIS FROST INC,55413FRSTP1209N,1209 NE TYLER ST,MINNEAPOLIS,HENNEPIN,MN,554131586
570,44.5959,-93.1414,,GENERAL MILLS OPERATIONS INC. PURITY OATS FACILITY,55413GNRLM1201J,1201 JACKSON ST NE,MINNEAPOLIS,HENNEPIN,MN,55413
571,44.5548,-93.1505,,GRACO INC,55413GRCNC1024S,1112 SIBLEY ST NE,MINNEAPOLIS,HENNEPIN,MN,554131894
572,44.5949,-93.1623,GRACO INC,GRACO MINNESOTA INC - MINNEAPOLIS,55413GRCNC6011T,1024 SIBLEY ST NE,MINNEAPOLIS,HENNEPIN,MN,55413
573,44.5959,-93.1515,,ELECTRIC MACHINERY CO LLC,55413LCTRC800CE,800 CENTRAL AVE,MINNEAPOLIS,HENNEPIN,MN,55413
574,44.5826,-93.1555,,LAND O'LAKES FARMLAND FEED,55413LNDLK2300N,2300 KENNEDY ST NE,MINNEAPOLIS,HENNEPIN,MN,55413
575,44.593,-93.1434,,MINNESOTA METAL FINISHING INC,55413MNNST909WI,909 WINTER ST NE,MINNEAPOLIS,HENNEPIN,MN,55413
576,44.5955,-93.1351,IP CORP,INTERPLASTIC CORP,55413NTRPL2015N,2015 NE BROADWAY ST,MINNEAPOLIS,HENNEPIN,MN,55413
577,45.001,-93.1509,,PERMATITE MANUFACTURING,55413PRMTT71215,712 NE 15TH AVE,MINNEAPOLIS,HENNEPIN,MN,55413
578,44.5938,-93.1402,,PROSPECT FOUNDRY LLC,55413PRSPC1225W,1225 WINTERS ST NE,MINNEAPOLIS,HENNEPIN,MN,55413
579,44.5924,-93.1525,,SUPERIOR PLATING INC,55413SPRRP3151S,315 FIRST AVE NE,MINNEAPOLIS,HENNEPIN,MN,55413
580,44.5933,-93.1303,,TWIN CITY CHROMIUM PLATING,55413TWNCT641NE,641 HOOVER ST NE,MINNEAPOLIS,HENNEPIN,MN,55413
581,44.5923,-93.1301,,EXCEL METAL FINISHING,55413XCLMT2501N,2501 NE WINTER ST,MINNEAPOLIS,HENNEPIN,MN,55413
582,44.5858,-93.1305,,GREATBATCH LTD (D/B/A GREATBATCH MEDICAL),55414GLBTL73024,730 24TH AVE SE,MINNEAPOLIS,HENNEPIN,MN,55414
583,44.5819,-93.1233,,H B FULLER CO,55414HBFLL520MA,520 MALCOLM AVE SE,MINNEAPOLIS,HENNEPIN,MN,55414
584,44.5903,-93.1239,DIC INTERNATIONAL USA LLC,KOHL and MADDEN PRINTING INK COR P,55414KHLMD78229,782 29TH AVE SE,MINNEAPOLIS,HENNEPIN,MN,55414
585,44.5823,-93.1204,,LIFECORE BIOMEDICAL INC,55414LFCRB31527,315 27TH AVE SE,MINNEAPOLIS,HENNEPIN,MN,55414
586,44.5847,-93.1347,,MCLAUGHLIN GORMLEY KING CO,55414MCLGH1715F,1715 5TH ST SE,MINNEAPOLIS,HENNEPIN,MN,55414
587,44.523,-93.1016,,PECHINEY PLASTIC PACKAGING PPMM,55414MRCNN15026,150 26TH AVE SE,MINNEAPOLIS,HENNEPIN,MN,55414
588,44.593,-93.1431,,BODYCOTE METALLURGICAL,55414MTLLR900EA,900 E HENNEPIN AVE,MINNEAPOLIS,HENNEPIN,MN,55414
589,44.594,-93.011,,METAL MATIC INC,55414MTLMT6292N,629 2ND ST SE,MINNEAPOLIS,HENNEPIN,MN,55414
590,44.5828,-93.1245,,NORTHERN STAR CO,55414NRTHR31715,3171 5TH ST SE,MINNEAPOLIS,HENNEPIN,MN,55414
591,44.5857,-93.1252,,RITRAMA INC,55414NVRSL800KA,800 KASOTA AVE SE,MINNEAPOLIS,HENNEPIN,MN,55414
592,45.0,-93.15,,ADM MILLING CO,55414PLLSB335MA,335 MAIN ST SE,MINNEAPOLIS,HENNEPIN,MN,55414
593,44.59,-93.1458,,PRIVATE LABEL CHEMICALS INC,55414PRVTL601SE,601 2ND ST SE,MINNEAPOLIS,HENNEPIN,MN,55414
594,44.5835,-93.1306,,REICHHOLD CHEMICALS INC,55414SPNCR52525,525 25TH AVE SE,MINNEAPOLIS,HENNEPIN,MN,55414
595,44.592,-93.1225,TWIN CITY DIE CASTINGS CO,TWIN CITY DIE CASTINGS CO,55414TWNCT10703,1070 SE 33RD AVE,MINNEAPOLIS,HENNEPIN,MN,55414
596,44.58,-93.154,,BUREAU OF ENGRAVING INC GRAPHICS DIV,55415BRFNG500S4,500 S 4TH ST,MINNEAPOLIS,HENNEPIN,MN,55415
597,44.5819,-93.1537,,DOUGLAS CORP,55415DGLSC62012,620 12TH AVE S,MINNEAPOLIS,HENNEPIN,MN,554151779
598,44.571,-92.554,,AUGSBURG FORTRESS PUBLISHING,55415GSBRG426S5,426 S 5TH ST,MINNEAPOLIS,HENNEPIN,MN,55415
599,44.5832,-93.1522,,SAMUEL BINGHAM CO,55415SMLBN900SO,900 S 3RD ST,MINNEAPOLIS,HENNEPIN,MN,55415
600,44.5827,-93.1513,,VALSPAR CORP,55415THVLS1101S,1101 S 3RD ST,MINNEAPOLIS,HENNEPIN,MN,55415
601,44.5617,-93.2106,DOUGLAS CORP,DOUGLAS CORP PLATING DIV,55416DGLSC3250X,3520 XENWOOD AVE S,SAINT LOUIS PARK,HENNEPIN,MN,55416
602,44.5758,-93.2118,,HONEYWELL INC,55416HNYWL1625Z,1625 ZARTHAN AVE,SAINT LOUIS PARK,HENNEPIN,MN,55416
603,44.5749,-93.2045,,KAPAK CORP,55416KPKCR5305P,5305 PARKDALE DR,MINNEAPOLIS,HENNEPIN,MN,55416
604,44.5,-93.3,,"CURWOOD MINNESOTA, LLC",55416MRCNN3600A,3600 ALABAMA AVE,SAINT LOUIS PARK,HENNEPIN,MN,554162465
605,44.5638,-93.2032,,NORTHLAND ALUMINUM PRODUCTS I NC,55416NRTHL5005H,5005 COUNTY RD 25,MINNEAPOLIS,HENNEPIN,MN,55416
606,44.5959,-93.202,NESTLE USA INC,"NESTLE HEALTHCARE NUTRITION, INC.",55416SNDZN5320W,5320 W 23RD ST,SAINT LOUIS PARK,HENNEPIN,MN,55416
607,44.5629,-90.2025,,SUPREME FINISHERS INC,55416SPRMF4820W,4820 W 35TH ST,MINNEAPOLIS,HENNEPIN,MN,55416
608,45.005,-93.16,,GRACE-LEE PRODUCTS INC,55418GRCLP25402,2540 2ND ST NE,MINNEAPOLIS,HENNEPIN,MN,554183474
609,45.0057,-93.1607,,HARD CHROME INC,55418HRDCH26312,2631 2ND ST N.E,MINNEAPOLIS,HENNEPIN,MN,55418
610,45.0134,-93.1612,,APPLIED COATING TECHNOLOGY INC PLANT 3,55418LCTRS3225C,3225 COLUMBIA AVE NE,MINNEAPOLIS,HENNEPIN,MN,55418
612,45.01,-93.1552,,MED-TEK INC,55418MDTKN26392,2639 2ND ST NE,MINNEAPOLIS,HENNEPIN,MN,55418
614,45.0028,-93.1447,,UNIVERSAL PLATING INC,55418NVRSL1900M,1900 MONROE ST NE,MINNEAPOLIS,HENNEPIN,MN,55418
615,45.0021,-93.1618,,PACKAGING CORP OF AMERICA,55418PCKGN1821N,1821 N E MARSHALL ST,MINNEAPOLIS,HENNEPIN,MN,55418
616,45.0115,-93.163,,XCEL ENERGY RIVERSIDE GENERATING PLANT,55418RVRSD3100M,3100 MARSHALL ST NE,MINNEAPOLIS,HENNEPIN,MN,55418
617,45.0,-93.15,,WHIRL-AIR-FLOW,55418WHRLR1515C,1515 CENTRAL AVE NE,MINNEAPOLIS,HENNEPIN,MN,55418
618,45.013,-93.153,AZZ INC,ZALK STEEL and SUPPLY CO,55418ZLKST446ST,446 SAINT ANTHONY BLVD,MINNEAPOLIS,HENNEPIN,MN,55418
619,44.5334,-93.1705,HOLCIM (US) INC,AGGREGATE INDUSTRIES MINNEAPOLIS READY MIX,55419GGRGT400W6,400 61ST ST W,MINNEAPOLIS,HENNEPIN,MN,55419
620,44.543,-93.183,API GROUP INC,LEJEUNE STEEL CO,55419LJNST118WE,118 W 60TH ST,MINNEAPOLIS,HENNEPIN,MN,55419
623,44.508,-93.1711,FMS CORP,FMS CORP,55420FMSCR8635H,8635 HARRIET AVE S,BLOOMINGTON,HENNEPIN,MN,55420
624,44.5042,-93.1702,WP CPP HOLDINGS LLC,CONSOLIDATE PRECISION PRODUCTS-MINNEAPOLIS OPERATION,55420HTCHC8701H,8701 HARRIET AVE S,BLOOMINGTON,HENNEPIN,MN,55420
625,44.52,-93.18,,"SEAGATE TECH INC, MPS",55420MGNTC8001E,8001 E BLOOMINGTON FWY,BLOOMINGTON,HENNEPIN,MN,55420
626,44.5053,-93.1705,,ONYX SPECIAL SERVICES INC,55420NYXSP405W8,405 W 86TH ST,BLOOMINGTON,HENNEPIN,MN,55420
627,45.0,-92.32,,DEGUSSA CONSTRUCTION CHEMICALS OPERATIONS INC,55420RXNRD333WE,333 86TH ST,BLOOMINGTON,HENNEPIN,MN,55420
628,44.5008,-93.17,,THERMO KING CORP,55420THRMK314W9,314 W 90TH ST,BLOOMINGTON,HENNEPIN,MN,55420
629,45.0342,-93.164,,ECO FINISHING,55421CFNSH5100I,5100 INDUSTRIAL BLVD,FRIDLEY,ANOKA,MN,55421
630,45.0222,-93.1604,,ADVANCED FLEX INC PLANT 2,55421FZNCX3905C,3905 CALIFORNIA ST NE,COLUMBIA HEIGHTS,ANOKA,MN,55421
631,45.0216,-93.1506,,H B FULLER CO MONARCH DIV,55421HBFLL3900J,3900 JACKSON ST NE,COLUMBIA HEIGHTS,ANOKA,MN,55421
632,45.0347,-93.1607,HB FULLER CO,HB FULLER,55421HBFLL5220M,5220 MAIN ST NE,FRIDLEY,ANOKA,MN,55421
633,45.05,-93.15,,KURT MANUFACTURING CO,55421KRTMF5280M,5280 MAIN ST NE,FRIDLEY,ANOKA,MN,554211594
634,45.0214,-93.155,,ELECTRO LABORATORIES INC,55421LCTRL37573,3757 3RD ST NE,COLUMBIA HEIGHTS,ANOKA,MN,55421
635,45.0359,-93.1611,,LAKELAND CHEMICAL CORP,55421LKLNC5400M,5400 MAIN ST N E,MINNEAPOLIS,ANOKA,MN,55421
636,45.04,-90.15,,MEDTRONIC INC NEUROLOGICAL DIV,55421MDTRN80053,800 53RD AVE NE,COLUMBIA HEIGHTS,ANOKA,MN,55421
637,45.0359,-93.1602,,AMERICAN CONVERTERS INC,55421MRCNC5360N,5360 MAIN ST NE,FRIDLEY,ANOKA,MN,55421
638,45.033,-93.163,,UNITED DEFENSE LP ARMAMENT SYSTEM DIV NAVY IND RESERVE,55421NVLND4800E,4800 E RIVER RD,FRIDLEY,ANOKA,MN,554211498
639,45.0218,-93.1505,,INVEST CAST INC,55421NVSTC71439,716 39TH AVE NE,MINNEAPOLIS,ANOKA,MN,55421
640,45.0339,-93.1631,,QUEBECOR PRINTING,55421QBCRP5101I,5101 INDL BLVD,FRIDLEY,HENNEPIN,MN,55421
641,45.0312,-93.1611,,SAFETRAN SYSTEMS CORP E-M DIV,55421SFTRN4650M,4650 MAIN ST NE,FRIDLEY,ANOKA,MN,554212199
642,45.0352,-93.1633,,ATLAS MFG,55421TLSMN5250I,5250 INDL BLVD NE,FRIDLEY,ANOKA,MN,55421
643,45.0,-93.2145,HONEYWELL INTERNATIONAL INC,HONEYWELL INTERNATIONAL INC HOME and BUILDING TECHNOLOGIES,55422HNYWL1985D,1985 DOUGLAS DRIVE NORTH,GOLDEN VALLEY,HENNEPIN,MN,55422
644,44.5915,-93.211,,TENNANT CO,55422TNNNT701NO,701 N LILAC DR,MINNEAPOLIS,HENNEPIN,MN,554221452
645,44.5426,-93.1843,,BARREL FINISH INC,55423BRRLF7630K,7630 KNOX AVE S,MINNEAPOLIS,HENNEPIN,MN,55423
646,44.5129,-93.1334,,GENERAL DYNAMICS ADVANCED INFORMATION SYSTEMS HQG/D,55425CNTRL3101E,3021 AMERICAN BLVD E,BLOOMINGTON,HENNEPIN,MN,55425
647,44.5051,-93.1407,SKYWATER TECHNOLOGY FOUNDRY INC,SKYWATER TECHNOLOGY FOUNDRY INC,55425CYPRS2401E,2401 E 86TH ST,BLOOMINGTON,HENNEPIN,MN,55425
648,44.5051,-93.1407,,VTC INC RIVER RIDGE,55425VTCNC2401E,2401 E 28TH ST,BLOOMINGTON,HENNEPIN,MN,55425
649,44.5111,-93.1353,,POLAR SEMICONDUCTOR LLC,55425VTCNC2800E,2800 E OLD SHAKOPEE RD,BLOOMINGTON,HENNEPIN,MN,55425
650,44.55,-93.21,,HONEYWELL ADVANCED CIRCUITS INC,55426CNTRL3965M,3965 MEADOWBROOK RD,SAINT LOUIS PARK,HENNEPIN,MN,55426
651,44.5733,-93.2142,,FOOD PRODUCERS INTERNATIONAL,55426FDPRD2401E,2401 EDGEWOOD AVE S,SAINT LOUIS PARK,HENNEPIN,MN,55426
652,44.5607,-93.2206,,FLAME METALS PROCESSING CORP PLANT 1,55426FLMMT7317W,7317 W LAKE ST,SAINT LOUIS PARK,HENNEPIN,MN,55426
653,44.5616,-93.2159,,HARDCOAT INC,55426HRDCT7300W,7300 W LAKE ST,SAINT LOUIS PARK,HENNEPIN,MN,554264358
654,44.5552,-93.2157,,LINDBERG HEAT TREATING CO,55426LNDBR6981O,6981 OXFORD ST,MINNEAPOLIS,HENNEPIN,MN,55344
655,44.56,-93.2138,,LIND ELECTRONICS INC,55426LNDLC6414C,6414 CAMBRIDGE ST,SAINT LOUIS PARK,HENNEPIN,MN,55426
656,44.5717,-93.225,,MAGNETIC PERIPHERALS INC,55426MGNTC6831O,6831 OXFORD ST,SAINT LOUIS PARK,HENNEPIN,MN,554264412
657,44.5553,-93.2233,,SUPER RADIATOR COILS,55426SPRRD6714W,6714 WALKER ST,MINNEAPOLIS,HENNEPIN,MN,554264280
658,45.0143,-93.2247,,DURA-PROCESS CO,55427DRPRC4000W,4000 WINNETKA AVE N,MINNEAPOLIS,HENNEPIN,MN,55427
659,44.5938,-93.2335,GENERAL MILLS INC,GENERAL MILLS OPS INC JAMES FORD BELL TECHNICAL CENTER,55427GNRLM9000P,9000 PLYMOUTH AVE N,GOLDEN VALLEY,HENNEPIN,MN,55427
660,44.591,-93.2145,,HONEYWELL INC,55427HNYWL6300O,6300 OLSON MEMORIAL PKY,GOLDEN VALLEY,HENNEPIN,MN,55427
661,44.58,-93.3108,HAWKINS INC,HAWKINS INC,55427HWKNS3100E,3100 E HENNEPIN AVE,MINNEAPOLIS,HENNEPIN,MN,55413
662,44.5935,-93.2359,LUBRICATION TECHNOLOGIES INC,LUBRICATION TECHNOLOGIES INC,55427LBRCT900ME,900 MENDELSSOHN AVE N,GOLDEN VALLEY,HENNEPIN,MN,55427
663,45.0,-93.15,,DAKOTA GROWERS PASTA CO MINNESOTA DIV,55427NRTHM73003,7300 36TH AVE N,NEW HOPE,HENNEPIN,MN,55427
664,44.5922,-93.2313,,NORTHERN PRINTING INK CORP,55427NRTHR83601,8360 10TH AVE N,GOLDEN VALLEY,HENNEPIN,MN,55427
665,44.525,-93.2451,,NORTRONICS CO INC,55427NRTRN81011,8101 10TH AVE N,GOLDEN VALLEY,HENNEPIN,MN,55427
666,45.0102,-93.2245,,UNIVERSAL PLASTICS INC,55427NVRSL3252W,3252 WINPARK DR,CRYSTAL,HENNEPIN,MN,55427
668,45.0016,-93.225,,RSP PLATING INC,55427RSPPL3968W,3968 WINNETKA AVE,NEW HOPE,HENNEPIN,MN,55427
669,45.0059,-93.2241,,TRC CIRCUITS INC,55427TRCCR3300W,3300 WINPARK DR,CRYSTAL,HENNEPIN,MN,55427
671,45.031,-93.2342,CLARIANT PLASTICS and COATINGS USA INC,CLARIANT PLASTICS and COATINGS USA INC - MINNEAPOLIS FACILITY,55428CHRLS9101I,9101 INTERNATIONAL PKWY,NEW HOPE,HENNEPIN,MN,55428
672,45.03,-93.2333,,CINCH,55428CNCHC8821S,8821 SCIENCE CENTER DR,NEW HOPE,HENNEPIN,MN,554283619
673,45.0318,-93.2356,,CENTRAL STATES DIVERSIFIED,55428CNTRL9000S,9000 SCIENCE CENTER DR,NEW HOPE,HENNEPIN,MN,55428
674,45.0305,-93.2349,,ABELCONN LLC,55428CTSCN9210S,9210 SCIENCE CENTER DR,NEW HOPE,HENNEPIN,MN,55428
675,45.0253,-93.2253,,ALPHA CERAMICS INC.,55428HNYWL5121W,5121 WINNETKA AVE N SUITE 100,NEW HOPE,HENNEPIN,MN,55428
676,45.0313,-93.2354,PARKER HANNIFIN CORP,PARKER HANNIFIN HPS,55428LDYNP552NH,5520 HWY 169 N,NEW HOPE,HENNEPIN,MN,55428
677,45.0242,-93.2326,BELLCOMB TECHNOLOGIES,BELLCOMB,55428LKSDL5001B,5001 BOONE AVE N,NEW HOPE,HENNEPIN,MN,55428
678,45.0243,-93.2331,,INNO-FLEX CORP,55428NNFLX4929B,4929 BOONE AVE,NEW HOPE,HENNEPIN,MN,55428
679,45.023,-93.223,,NORDIC PRESS INC,55428NRDCP5017B,5017 BOONE AVE N,MINNEAPOLIS,HENNEPIN,MN,55428
680,45.0526,-93.2344,,MENASHA PACKAGING NORTH STAR CONTAINER,55428NRTHS7301N,7301 NORTHLAND DR,BROOKLYN CENTER,HENNEPIN,MN,55428
681,45.02,-93.15,,MAAX US CORP.,55428PRLBT92247,9224 73RD AVE N,BROOKLYN PARK,HENNEPIN,MN,55428
682,45.0217,-93.2233,,ROBINSON RUBBER PRODUCTS CO,55428RBNSN4600Q,4600 QUEBEC AVE N,MINNEAPOLIS,HENNEPIN,MN,55428
683,45.0012,-93.2326,,TECHNICAL PLATING INC,55428TCHNC86017,8760 XYLON AVE N -,BROOKLYN PARK,HENNEPIN,MN,55445
684,45.0404,-93.2323,,THOMAS ENGINEERING CO,55428THMSN7024N,7024 NORTHLAND DR N,BROOKLYN PARK,HENNEPIN,MN,55428
685,45.0349,-93.2249,,TK PRODS,55428TKPRD5008H,5008 HILLSBORO AVE N,NEW HOPE,HENNEPIN,MN,55428
686,45.0254,-93.2324,METAL TECHNOLOGIES INC,MINNEAPOLIS DIE CASTING LLC,55428TLPRD5100B,5100 BOONE AVE N,NEW HOPE,HENNEPIN,MN,55428
687,45.0538,-93.2346,MEDTRONIC INC,MEDTRONIC INC PERFUSION SYSTEMS,55428VCRCR7611N,7611 NORTHLAND DR,BROOKLYN PARK,HENNEPIN,MN,55428
688,45.023,-93.2344,,AVTEC FINISHING SYSTEMS INC,55428VTCFN9101S,9101 SCIENCE CENTER DR,NEW HOPE,HENNEPIN,MN,55428
692,45.024,-93.19,,HOWE CO,55430CRPMT4821X,4821 XERXES AVE N,MINNEAPOLIS,HENNEPIN,MN,55430
693,45.0437,-93.1812,,HIAWATHA RUBBER CO,55430HWTHR17006,1700 67TH AVE N,MINNEAPOLIS,HENNEPIN,MN,55430
694,45.0445,-93.18,,MEDTRONIC ENERGY and COMPONENT CENTER,55430MDTRN67000,6800 SHINGLE CREEK PKWY,BROOKLYN CENTER,HENNEPIN,MN,55430
695,45.0403,-93.1814,,VISION-EASE LENS POLYCARBONATE OPS,55430PLYPT6800S,"6800 SHINGLE CREEK PARKWAY, SUITE 280",BROOKLYN CENTER,HENNEPIN,MN,554301445
696,45.0235,-93.181,OWENS CORNING INC,OWENS CORNING ROOFING and ASPHALT LLC,55430WNSCR19014,1901 - 49TH AVE N,MINNEAPOLIS,HENNEPIN,MN,55430
697,44.5255,-93.1359,,CENTURY MFG CO,55431CNTRY9231P,9231 PENN AVE S,BLOOMINGTON,HENNEPIN,MN,55431
698,44.4956,-93.1758,ADDED VALUE TECHNOLOGY LLC,ADDED VALUE TECHNOLOGY,55431DDDVL9401J,9401 JAMES AVE S SUITE 100,BLOOMINGTON,HENNEPIN,MN,55431
699,44.4937,-93.1814,,FLAME METALS PROCESSING BLOOMINGTON,55431GTCHL1900W,1900 W 98TH ST,BLOOMINGTON,HENNEPIN,MN,55431
700,44.4949,-93.1717,,PRINTED CIRCUITS INC,55431PRNTD1200W,1200 W 96TH ST,BLOOMINGTON,HENNEPIN,MN,55431
701,45.0603,-93.1536,,CARTER DAY INTL INC,55432CRTRD494NO,494 NORTHCO DR NE,FRIDLEY,ANOKA,MN,55432
702,45.0642,-93.1624,,CUSTOM CAST CORP,55432CSTMC7891N,7891 NE HICKORY ST,FRIDLEY,ANOKA,MN,55432
703,45.0606,-93.1616,,DUGAS BOWERS PLATING CO,55432DGSBW7965M,7965 MAIN ST NE,FRIDLEY,ANOKA,MN,55432
704,45.0442,-93.1744,,LAMAUR CORP,55432DWBRN5601E,5601 E RIVER RD,FRIDLEY,ANOKA,MN,554326198
705,45.0549,-93.1558,,FLEXCON CO INC,55432FLXCN7165C,7165 COMMERCE CIRCLE WEST,FRIDLEY,ANOKA,MN,55432
706,45.062,-93.1433,KURT MANUFACTURING CO,KURT MANUFACTURING CO,55432KRTMF7585V,7585 HWY 65 NE,FRIDLEY,ANOKA,MN,55432
707,45.0603,-93.1536,,INCERTEC,55432KWKFL50473,490 NORTHCO DR NE,MINNEAPOLIS,ANOKA,MN,55432
708,45.0613,-93.1557,,LARSEN'S MANUFACTURING CO,55432LRSNS7421C,7471 COMMERCE LN NE,FRIDLEY,ANOKA,MN,55432
709,45.0645,-93.1607,,MICRO CONTROL CO,55432MCRCN7956M,7956 MAIN ST NE,FRIDLEY,ANOKA,MN,55432
710,45.05,-93.14,,MEDTRONIC INC,55432MDTRN7000C,7000 CENTRAL AVE NE,FRIDLEY,ANOKA,MN,554323576
711,45.06,-93.15,,MINCO PRODUCTS INC,55432MNCPR7300C,7300 COMMERCE LN NE,FRIDLEY,ANOKA,MN,55432
712,45.0552,-93.1604,,MINNCAST INC,55432MNNCS200NE,200 COMMERCE CIR S,FRIDLEY,ANOKA,MN,55432
714,45.0629,-93.1425,,ANCHOR/IBC,55432NTRNT1173O,1173 OSBORNE RD NE,SPRING LAKE PARK,ANOKA,MN,55432
715,45.0653,-93.1556,,INTERNATIONAL BLENDING CORP,55432NTRNT8090R,8090 RANCHERS RD,FRIDLEY,ANOKA,MN,55432
716,44.58,-93.16,,PILLSBURY CO,55432PLLSB7350C,7350 COMMERCE LN,FRIDLEY,ANOKA,MN,55432
717,45.0632,-93.1625,,MCQUAY INTERNATIONAL,55432SNYDR99NE7,99 NE 77TH WAY,FRIDLEY,ANOKA,MN,55432
718,45.0707,-93.1602,,INCERTEC,55432SPCPL16083,160 83RD AVE NE # 105,FRIDLEY,ANOKA,MN,55432
719,45.0649,-93.1839,,SPACE TABLES,55432SPCTB8035R,8035 RANCHER'S RD,MINNEAPOLIS,HENNEPIN,MN,554320082
720,45.0705,-93.1544,,STYLMARK INC,55432STYLM6536M,6536 MAIN ST NE,FRIDLEY,ANOKA,MN,55432
721,45.0842,-93.1732,,JOHN ROBERTS CO,55433JHNRB9687E,9687 E RIVER RD,MINNEAPOLIS,ANOKA,MN,55433
722,45.0758,-93.1621,,ALUMIPLATE INC,55433LMPLT896SP,8960 SPRINGBROOK DR SUITE 105,COON RAPIDS,ANOKA,MN,55433
723,45.473,-93.153,,LUND INDUSTRIES INC,55433LNDND9055E,9055 EVERGREEN BLVD,COON RAPIDS,ANOKA,MN,55433
724,45.08,-93.1635,,MIDWEST FINISHING INC,55433MDWST9289E,9289 EVERGREEN BLVD,COON RAPIDS,ANOKA,MN,55433
725,45.0757,-93.1615,,STERIS INC,55433QLTYS38090,380 90TH AVE NW,COON RAPIDS,ANOKA,MN,55433
726,45.06,-93.29,,RMS,55433RMSXX8600E,8600 EVERGREEN BLVD,MINNEAPOLIS,HENNEPIN,MN,554336036
727,45.0756,-93.1644,,RAMSEY TECHNOLOGY INC,55433RMSYT50190,501 90TH AVE NW,MINNEAPOLIS,ANOKA,MN,55433
728,45.0641,-93.1258,,BEALKA CASTING INC,55434BLKCS10575,10525 NASSAU ST NE,BLAINE,ANOKA,MN,55449
730,45.0753,-93.103,,PLASTI DIP INTERNATIONAL,55434PDNCX3760F,3760 FLOWERFIELD RD,CIRCLE PINES,ANOKA,MN,55014
731,44.5133,-93.203,,ADC TELECOMMUNICATIONS INC,55435DCTLC4900W,4900 W 78TH ST,BLOOMINGTON,HENNEPIN,MN,55435
732,44.523,-93.223,,IDEUS INC,55435DSNCX7665W,7665 WASHINGTON AVES,EDINA,HENNEPIN,MN,55435
733,44.521,-93.2115,THE DOW CHEMICAL CO,FILMTEC CORP,55435FLMTC7200O,7200 OHMS LN,EDINA,HENNEPIN,MN,55439
734,44.52,-93.21,,IMPRIMIS TECH INC,55435MGNTC7490B,7490 BUSH LAKE RD,EDINA,HENNEPIN,MN,55435
735,44.5139,-93.2033,SEAGATE TECHNOLOGY INC,SEAGATE TECHNOLOGY,55435MGNTC7801C,7801 COMPUTER AVE,BLOOMINGTON,HENNEPIN,MN,55435
736,44.5154,-93.2003,,ROBERTS AUTOMATIC PRODUCTS,55435RBRTS4451W,4451 W 76TH ST,EDINA,HENNEPIN,MN,554355193
737,44.52,-93.213,,"SEAGATE TECH INC, OVR",55435SGTTC5300W,5300 W 76TH ST,EDINA,HENNEPIN,MN,55435
738,44.535,-93.2355,,HONEYWELL INC EDINA BLDG,55436HNYWL5901S,5901 S COUNTY RD 18,EDINA,HENNEPIN,MN,55436
739,44.51,-93.21,,"SEAGATE TECH INC, NSO",55437MGNTC5100W,5100 W 82ND ST,BLOOMINGTON,HENNEPIN,MN,55437
740,44.4811,-93.222,UNITED TECHNOLOGIES CORP,DETECTOR ELECTRONICS CORP,55438DTCTR691W1,6901 W 110TH ST,BLOOMINGTON,HENNEPIN,MN,55438
741,44.522,-93.2135,,THIELE ENGINEERING CO,55439THLNG7225B,7225 BUSH LAKE RD,EDINA,HENNEPIN,MN,554392024
744,45.0013,-93.1336,HONEYWELL INTERNATIONAL INC,HONEYWELL AEROSPACE - MINNEAPOLIS,55440HNYWL2600R,2600 RIDGWAY PKWY,MINNEAPOLIS,HENNEPIN,MN,55413
745,44.5615,-93.2118,,MINNESOTA RUBBER,55440MNNST3630W,3630 WOODDALE AVE,SAINT LOUIS PARK,HENNEPIN,MN,55416
746,45.0015,-93.2718,,CONTROL DATA CORP EMPROS SYSTEMS INTERNATIONAL DIV,55441CNTRL2200B,2200/2300 BERKSHIRE LN N,PLYMOUTH,HENNEPIN,MN,55441
747,45.0044,-93.254,BASF CORP,"BASF CORPORATION, MINNEAPOLIS SITE",55441FMNTR13630,13630 WATER TOWER CIR,MINNEAPOLIS,HENNEPIN,MN,55441
749,44.5931,-93.3255,,"HONEYWELL INC, RESIDENTIAL and BUILDING CONTROL",55441HNYWL975NA,975 NATHAN LN,PLYMOUTH,HENNEPIN,MN,55441
751,45.0,-93.3,,LSI CORP OF AMERICA INC,55441LSCRP2100X,2100 XENIUM LN,PLYMOUTH,HENNEPIN,MN,554413629
752,45.0,-93.27,,UNIVERSAL CIRCUITS INC,55441NVRSL13305,13305 INDL PARK BLVD,PLYMOUTH,HENNEPIN,MN,55441
753,45.001,-93.2805,,PROTO LABS,55441PRGRS2600N,2600 NIAGARA LN N,PLYMOUTH,HENNEPIN,MN,554474719
754,45.02,-93.27,,SCHNEIDER USA INC,55441SCHND2905N,2905 NW BLVD,MINNEAPOLIS,HENNEPIN,MN,55441
755,44.5955,-93.2641,,AVECOR CARDIOVASCULAR INC,55441SCMDL13000,13010 COUNTY RD 6,PLYMOUTH,HENNEPIN,MN,55441
756,45.0,-92.27,,BOSTON SCIENTIFIC SCIMED INC,55441SCMDL2050E,2050 E CENTER CIRCLE,PLYMOUTH,HENNEPIN,MN,554413816
759,45.0335,-93.2454,HUTCHINSON TECHNOLOGY INC,HUTCHINSON TECHNOLOGY INC,55442HTCHN5905T,5905 TRENTON LN N,PLYMOUTH,HENNEPIN,MN,55442
760,45.0336,-93.244,BOSTON SCIENTIFIC CORP,BOSTON SCIENTIFIC PLYMOUTH TECHNOLOGY CENTER,55442SCHND5905N,5905 NATHAN LN,PLYMOUTH,HENNEPIN,MN,55442
761,45.0254,-93.2412,,TWIN CITY OPTICAL,55442TWNCT525HI,5205 HWY 169 N,PLYMOUTH,HENNEPIN,MN,55442
762,45.0,-93.09,,GRACE-LEE PRODUCTS INC,55443GRCLP1414M,1414 MARSHALL ST NE,MINNEAPOLIS,HENNEPIN,MN,55413
763,45.063,-93.2317,CATERPILLAR INC,CATERPILLAR PAVING PRODUCTS INC,55445CTRPL94018,9401 85TH AVE N,BROOKLYN PARK,HENNEPIN,MN,55445
764,45.0546,-93.2311,,JOYNER'S DIE CASTING and PLATING INC,55445JYNRS7801X,7801 XYLON AVE N,BROOKLYN PARK,HENNEPIN,MN,55445
765,45.0622,-93.2405,,LOWELL INC,55445LWLLN95258,9525 83RD AVE N,BROOKLYN PARK,HENNEPIN,MN,55445
766,45.0702,-93.2306,,MIDWEST FINISHING INC.,55445MDWST9WYMI,9000 WYOMING AVE,BROOKLYN PARK,HENNEPIN,MN,55445
768,45.0659,-93.2307,,TECHNICAL RESIN PACKAGING,55445TCHNC8901W,8901 WYOMING AVE N,BROOKLYN PARK,HENNEPIN,MN,55445
769,45.0059,-93.2847,BANNER ENGINEERING CORP,BANNER ENGINEERING CORP,55447BNNRN15755,15755 32ND AVE N,PLYMOUTH,HENNEPIN,MN,55447
770,45.0054,-93.2945,,CIRCUIT SCIENCE INC,55447CRCTS15831,15831 HWY 55,PLYMOUTH,HENNEPIN,MN,55447
771,45.0032,-93.2729,CROWN EXTRUSIONS,AACRON INC,55447CRNNC2705C,2705 CHESHIRE LN,PLYMOUTH,HENNEPIN,MN,55447
772,45.003,-93.2758,,NEVERS INDUSTRIES INC,55447NVRSN14125,14125 21ST AVE N,MINNEAPOLIS,HENNEPIN,MN,55447
773,45.0046,-93.2805,,PRECISION DIVERSIFIED INDUSTRIES LLC,55447PRCSN14755,14755 27TH AVE N,PLYMOUTH,HENNEPIN,MN,55447
774,45.0014,-93.2767,,UPSHER-SMITH LABS INC,55447PSHRS14905,14905 23RD AVE N,MINNEAPOLIS,HENNEPIN,MN,55447
775,45.05,-93.3,,DANA CORP SPICER OFF-HIGHWAY PRODS DIV,55447SPCRC15905,15905 HWY 55,PLYMOUTH,HENNEPIN,MN,55447
776,45.05,-93.3,,DANA CORP SPICER OFF-HIGHWAY AXLE DIV,55447SPCRF15905,15905 HWY 55,PLYMOUTH,HENNEPIN,MN,55447
777,45.0107,-93.2731,DANFOSS POWER SOLUTIONS (US) CO,DANFOSS POWER SOLUTIONS (US) CO,55447SRDNF35ANN,3500 ANNAPOLIS LN N,PLYMOUTH,HENNEPIN,MN,55447
778,44.5955,-93.2736,,WAGNER SPRAY TECH CORP,55447WGNRS177FE,1770 FERNBROOK LN,PLYMOUTH,HENNEPIN,MN,55447
779,45.0059,-93.2805,,WATT/PETERSON INC,55447WTTPT15020,15020 27TH AVE N,PLYMOUTH,HENNEPIN,MN,55447
780,45.1049,-93.1824,,BTW INC,55448BTWNC11551,11551 EAGLE ST NW SUITE 3,COON RAPIDS,ANOKA,MN,55448
781,45.1046,-93.1803,,JOHN DEERE CYLINDE DIV MINNEAPOLIS,55448JHNDR13111,1301 115TH AVE NW,COON RAPIDS,ANOKA,MN,55448
782,45.082,-93.1355,,CYLINDER CITY INC,55449CYLND15329,1532 93RD LN NE,BLAINE,ANOKA,MN,554490220
783,45.0942,-93.1009,,PLASTI DIP INTERNATIONAL,55449PLSTD3920P,3920 PHEASANT RIDGE DR,BLAINE,ANOKA,MN,55449
784,45.0938,-93.1405,,PLEXUS CORP BMN,55449PLXSC17009,1700 93RD LN NE,BLAINE,ANOKA,MN,55449
785,45.082,-93.1355,PARKER HANNIFIN CORP,PARKER HANNIFIN CORP MOBILE CYLINDER DIV,55449PRKRM14609,1460-1532 93RD LN NE,BLAINE,ANOKA,MN,55449
786,45.0828,-93.1356,,ARROW CRYOGENICS,55449RRWCR16719,1671 93RD LN NE,BLAINE,ANOKA,MN,55449
787,45.0812,-93.1327,CLEAN HARBORS INC,SAFETY-KLEEN SYSTEMS BLAINE (BLA),55449SFTYK9261I,9261 ISANTI ST NE,BLAINE,ANOKA,MN,55449
794,44.5344,-93.1257,,US AIR FORCE MINNEAPOLIS-ST PAUL IAP ARS MN,55450SRFRC760MI,760 MILITARY HWY 934 MSG/CEV,MINNEAPOLIS,HENNEPIN,MN,554502100
795,47.315,-90.545,ALLETE INC,TACONITE HARBOR ENERGY CENTER,55613TCNTH8124W,8124 W HWY 61,SCHROEDER,COOK,MN,55613
796,47.0215,-91.4,LOUISIANA PACIFIC CORP,LOUISIANA-PACIFIC TWO HARBORS SIDING,55616LSNPCINDUS,711 25TH AVE INDUSTRIAL PARK N HWY 2,TWO HARBORS,LAKE,MN,55616
797,47.0245,-91.3959,STANLEY BLACK and DECKER,STANLEY HYDRAULIC TOOLS,55616STNLY1538S,1538 HWY 2,TWO HARBORS,LAKE,MN,55616
798,47.315,-92.0933,ALLETE INC,LASKIN ENERGY CENTER,55705LSKNN5699C,5699 COLBY LAKE RD,HOYT LAKES,ST LOUIS,MN,55750
799,47.3134,-92.2002,DYNO NOBEL INC,DYNO NOBEL INC,55708MNNSTCOUNT,5392 VERMILION TRAIL,BIWABIK,ST LOUIS,MN,55708
801,46.3943,-92.2532,CHEMSTAR PRODUCTS CO,CHEMSTAR PRODUCTS CO,55718CHMST131SO,131 S ST,CARLTON,CARLTON,MN,55718
802,47.2856,-92.5249,,MN TWIST DRILL AQUISITION LLC,55719MNNST611WE,1 SW 7TH ST,CHISHOLM,ST LOUIS,MN,55719
803,46.4345,-92.264,,DIAMOND BRANDS INC,55720DMNDB1800C,1800 CLOQUET AVE,CLOQUET,CARLTON,MN,55720
804,46.4323,-92.2619,SDW HOLDINGS CORP,SAPPI CLOQUET LLC,55720PTLTCNORTH,2201 AVE B,CLOQUET,CARLTON,MN,55720
805,46.4327,-92.2803,USG CORP,USG INTERIORS LLC,55720SGNTR35ARC,35 ARCH ST,CLOQUET,CARLTON,MN,55720
807,46.3015,-92.421,,SPECIALTY MINERALS INC,55720ZRNCXEASTE,2203 E END AVE B,CLOQUET,CARLTON,MN,55720
808,47.15,-93.3716,ALLETE INC,BOSWELL ENERGY CENTER,55721BSWLL1200N,1210 NW 3RD ST,COHASSET,ITASCA,MN,55721
809,47.4747,-92.3939,,AINSWORTH ENGINEERED USA LLC COOK OSB,55723PTLTCPOBOX,9358 US 53 S,COOK,ST LOUIS,MN,55723
810,47.28,-92.31,,MALTON EQUIPMENT COMPANY,55734MLTNQEVELE,EVELETH INDUSTRIAL PARK,EVELETH,ST LOUIS,MN,55734
811,47.1356,-93.3148,UPM-KYMMENE INVESTMENT INC,BLANDIN PAPER CO,55744BLNDN115SW,115 SW FIRST ST,GRAND RAPIDS,ITASCA,MN,55744
812,47.1345,-93.3413,,AINSWORTH ENGINEERED LLC,55744BLNDN502CO,502 COUNTY RD 63,GRAND RAPIDS,ITASCA,MN,55744
814,47.2248,-92.5059,,KIMBALL ELECTRONICS HIBBING,55746HBBNG31251,3125 14TH AVE E,HIBBING,ST LOUIS,MN,55746
815,47.2435,-92.5521,,NOBLE INDUSTRIES LTD,55746HBBNG3430E,3430 E 13TH AVE,HIBBING,ST LOUIS,MN,55746
816,47.2417,-92.5527,,LandM RADIATOR INC,55746LMRDT1414E,1414 E 37TH ST,HIBBING,ST LOUIS,MN,55746
817,47.2,-92.5,METAL TECHNOLOGIES INC,NORTHERN FOUNDRY,55746NRTHR555WE,555 W 25TH ST,HIBBING,ST LOUIS,MN,55746
818,47.2447,-92.5514,IRACORE INTERNATIONAL INC,IRATHANE SYSTEMS-MINNESOTA LLC,55746RTHNS3516E,3516 E 13TH AVE,HIBBING,ST LOUIS,MN,55746
819,47.255,-92.4959,AUSTIN POWDER CO,VIKING EXPLOSIVES LLC,55746VKNGX4469H,4469 HWY 5,HIBBING,ST LOUIS,MN,55746
820,47.255,-92.5607,,HIBBING PUBLIC UTILITIES COMMISSION,55749HBBNG1832S,1832 6TH AVE E,HIBBING,ST LOUIS,MN,55746
822,47.3002,-92.3311,,BORDEN CHEMICAL INC VIRGINIA PLANT,55792BRNCRPOBOX,1507 SOUTHERN DR,VIRGINIA,ST LOUIS,MN,55792
825,47.3051,-92.3151,,STAVER FOUNDRY INC,55792STVRF10010,100 10TH ST S,VIRGINIA,ST LOUIS,MN,55792
828,46.4513,-92.0555,,INNOVATIVE PINE TECHNOLOGY INC,55802NNVTV112PR,1102 PORT TERMINAL DR,DULUTH,ST LOUIS,MN,55802
829,46.4557,-92.0824,,ABC RAIL PRODUCTS CORP,55806BCRLP2900W,2900 W MICHIGAN,DULUTH,ST LOUIS,MN,55806
830,46.4605,-92.073,,FRANKLIN FOODS,55806FRNKL1925W,1925 W 1ST ST,DULUTH,ST LOUIS,MN,55806
831,46.4341,-92.0108,,DULUTH BRASS and ALUMINUM CO,55807DLTHB69THA,6900 POLK ST,DULUTH,ST LOUIS,MN,55807
832,46.4445,-92.0933,VERSO PAPER CORP,DULUTH PAPER MILL,55807LKSPR100NO,100 N CENTRAL AVE,DULUTH,ST LOUIS,MN,55807
834,46.4052,-92.1337,,DULUTH BRASS MANUFACTURING INC,55808DLTHB231CM,2301 COMMONWEALTH AVE,DULUTH,ST LOUIS,MN,55808
835,46.423,-92.12,TATE and LYLE INGREDIENTS AMERICAS LLC,TATE and LYLE DULUTH,55808MBYSY110SP,110 SPRING ST,DULUTH,ST LOUIS,MN,55808
836,46.3954,-92.1318,ME GLOBAL INC,ME GLOBAL INC,55808MNTRN200EA,200 E CARTERETT ST,DULUTH,ST LOUIS,MN,55808
839,46.5046,-92.1022,,US AIR FORCE DULUTH MN ANG,55811SRFRC4680V,148FW/EM 4680 VIPER ST,DULUTH,ST LOUIS,MN,55811
840,46.465,-92.9211,,DIAMOND TOOL and HORSESHOE CO,55816DMNDT4702G,4702 GRAND AVE,DULUTH,ST LOUIS,MN,558160250
841,46.4532,-92.0715,GERDAU USA INC,GERDAU AMERISTEEL US INC,55816NRTHS800GA,800 GARFIELD AVE,DULUTH,ST LOUIS,MN,55802
842,46.462,-92.064,KOCH INDUSTRIES INC,GEORGIA PACIFIC WOOD PRODUCTS LLC,55816SPRWD14THA,1220 W RAILROAD ST,DULUTH,ST LOUIS,MN,55802
848,44.033,-92.3021,,IBM ROCHESTER,55901BMXXXHWY52,3605 HWY 52 NORTH DEPT KMW,ROCHESTER,OLMSTED,MN,55901
850,44.0325,-92.3139,,CELESTICA CORP,55901CLSTC3050S,3050 SUPERIOR DR NW,ROCHESTER,OLMSTED,MN,55901
851,44.033,-92.303,,CELESTICA CORP,55901CLSTC30543,3054 - 37TH ST NW,ROCHESTER,OLMSTED,MN,55901
852,44.0003,-93.3003,CRENLO LLC,CRENLO CAB PRODUCTS INC PLANT 2,55901CRNLN2501V,2501 VALLEYHIGH DR NW,ROCHESTER,OLMSTED,MN,55901
854,44.031,-92.3052,BENCHMARK ELECTRONICS INC,BENCHMARK ELECTRONICS INC MINNESOTA DIV,55901PMSTR3535T,3535 TECHNOLOGY DR NW,ROCHESTER,OLMSTED,MN,55901
855,44.0292,-92.293,,PEPSI-COLA BOTTLING CO,55901PPSCL1307V,1307 VALLEY HIGH DR NW,ROCHESTER,OLMSTED,MN,55901
856,44.0206,-92.2952,KERRY INC,KERRY INGREDIENTS and FLAVOURS INC,55901STFFR24027,2402 7TH ST NW,ROCHESTER,OLMSTED,MN,55901
857,43.55,-92.3,,WATERS INSTRUMENTS,55901WTRSN24117,2411 7TH ST NW,ROCHESTER,OLMSTED,MN,55901
858,44.5245,-93.134,,NORTHWEST AIRLINES ROCHESTER MUNICIPAL AIRPORT,55902NRTHWROCHE,HALGERSON DR S W,ROCHESTER,OLMSTED,MN,55902
859,44.0024,-92.2732,SENECA FOODS CORP,SENECA FOODS CORP,55903SNCFD12173,1217 3RD AVE SE,ROCHESTER,OLMSTED,MN,55904
860,44.014,-92.2744,,"KEMPS, LLC",55904MRGLD406NB,406 N BROADWAY,ROCHESTER,OLMSTED,MN,55906
861,44.0058,-92.2738,DAIRY FARMERS OF AMERICA INC,KEMPS LLC,55904MRGLD700LA,700 1ST AVE SE,ROCHESTER,OLMSTED,MN,55904
862,44.0035,-92.2819,,SENECA FOODS CORP,55904SNCFD30820,308 20TH ST SE,ROCHESTER,OLMSTED,MN,55904
863,44.0005,-92.274,ASSOCIATED MILK PRODUCERS INC,ASSOCIATED MILK PRODUCERS INC,55904SSCTD7001S,700 1ST AVE SE,ROCHESTER,OLMSTED,MN,55904
864,44.0143,-92.2738,ROCHESTER PUBLIC UTILITIES,ROCHESTER PUBLIC UTILITIES SILVER LAKE PLANT,55906RCHST425WS,425 W SILVER LAKE DR NE,ROCHESTER,OLMSTED,MN,55906
865,43.3236,-92.4456,,LAND O'LAKES FARMLAND FEED,55909LNDLK13COM,13 COMMERCE ST,ADAMS,MOWER,MN,55909
867,43.4152,-92.5748,,AUSTIN UTILITIES NORTHEAST POW ER STATION,55912STNTL37011,3511 11TH ST NE,AUSTIN,MOWER,MN,55912
868,44.5213,-93.0305,,TANDEM PRODUCTS INC,55917TNDMP520IN,520 INDUSTRIAL DR,BLOOMING PRAIRIE,STEELE,MN,55917
869,43.5205,-93.03,ARKEMA DELAWARE INC,ARKEMA INC,55917VKNGC157WE,157 HWY AVE N,BLOOMING PRAIRIE,STEELE,MN,55917
870,43.5007,-92.1003,STRONGWELL CORP,STRONGWELL - CHATFIELD DIV,55923FCDVFHWY52,1610 HWY 52 S,CHATFIELD,FILLMORE,MN,55923
871,43.4959,-92.0953,,TUOHY FURNITURE CORP,55923THYFR42STA,42 ST ALBANS PL,CHATFIELD,FILLMORE,MN,55923
872,44.0358,-92.5907,,AL-CORN CLEAN FUEL,55924LCRNCHWY14,797 5TH ST,CLAREMONT,DODGE,MN,55924
873,43.4759,-92.4055,,GREAT RIVER ENERGY PLEASANT VALLEY STATION,55926GRTRV68435,68435 310TH ST,DEXTER,MOWER,MN,55926
874,43.4434,-92.4234,,MCNEILUS TRUCK and MANUFACTURING INC DEXTER,55926MCNLS214IN,214 INDUSTRIAL PARK DR,DEXTER,MOWER,MN,55926
875,44.021,-92.51,,EHLER'S PAINT SHOP,55927HLRSPHWY14,HWY 14 E,DODGE CENTER,DODGE,MN,55927
876,44.0215,-92.51,OSHKOSH CORP,MCNEILUS TRUCK and MANUFACTURING INC,55927MCNLSHIGHW,524 HWY ST E,DODGE CENTER,DODGE,MN,55927
877,44.162,-92.5907,,FOLDCRAFT CO,55946FLDCR615CE,615 CENTENNIAL DR,KENYON,GOODHUE,MN,55946
878,43.5202,-91.5108,,RIVERSIDE ELECTRONICS LTD,55952RVRSDONERI,1 RIVERSIDE DR,LEWISTON,WINONA,MN,55952
879,44.1215,-92.383,,DS MANUFACTURING INC,55963DSMNF67FIF,67 5TH ST NE,PINE ISLAND,GOODHUE,MN,559639713
880,44.1221,-92.3838,LAND O LAKES INC,LAND O LAKES - PINE ISLAND,55963LNDLK2062N,206 2ND ST NE,PINE ISLAND,GOODHUE,MN,55963
882,43.4007,-92.0457,FOREMOST FARMS USA COOPERATIVE,FOREMOST FARMS USA,55965WSCNS220ST,220 SAINT PAUL ST,PRESTON,FILLMORE,MN,55965
883,43.4919,-91.4534,,TRW AUTOMOTIVE,55971TRWTMHWY43,HWY 43 N,RUSHFORD,FILLMORE,MN,55971
884,43.3347,-91.3749,,NORTHERN AUTOMOTIVE SYSTEMS LLC SPRING GROVE DIV,55974NRTHR2024T,202 4TH AVE NE,SPRING GROVE,HOUSTON,MN,55974
887,43.5159,-92.2926,GEOTEK,GEOTEK LLC,55976MNTRC14212,1421 2ND AVE NW,STEWARTVILLE,OLMSTED,MN,55976
888,43.501,-92.29,CR BARD INC,CR BARD-STEWARTVILLE OPERATIONS PLANT 2,55976RCHST1500N,1500 2ND AVE NW,STEWARTVILLE,OLMSTED,MN,55976
889,44.042,-91.4245,,BADGER EQUIPMENT CO,55987BDGRCAIRPO,217 PATNEAUDE DR AIRPORT INDUSTRIAL PARK,WINONA,WINONA,MN,55987
890,44.0215,-91.3648,,BADGER FOUNDRY CO,55987BDGRF1058E,1058 E MARK ST,WINONA,WINONA,MN,55987
891,44.0321,-91.385,,BEHRENS INC,55987BHRNS471W3,471 W 3RD ST,WINONA,WINONA,MN,55987
892,44.0355,-91.4132,BENCHMARK ELECTRONICS INC,BENCHMARK ELECTRONICS INC MINNESOTA DIV,55987BNCHM4065T,4065 THEURER BLVD,WINONA,WINONA,MN,55987
893,44.0312,-91.3749,,BAY STATE MILLING CO,55987BYSTT55FRA,55 FRANKLIN ST,WINONA,WINONA,MN,55987
894,44.032,-91.3855,SOLVAY HOLDING INC,CYTEC ENGINEERED MATERIALS INC,55987CCMPS501W3,501 W 3RD,WINONA,WINONA,MN,55987
895,44.0438,-91.4229,,DIVERSIFIED FABRICATORS INC,55987DVRSF978EA,978 E 4TH ST,WINONA,WINONA,MN,55987
896,44.0,-91.0,,FUSION COATINGS INC,55987FSNCT1101E,1101 EAST 8TH ST,WINONA,WINONA,MN,55987
897,44.0129,-91.3627,WILLET HAUSER ARCHITECTURAL GLASS INC,WILLET HAUSER ARCHITECTURAL GLASS,55987HSRRT1685W,1685 WILKIE DR,WINONA,WINONA,MN,55987
898,44.0432,-91.4245,ZF TRW AUTOMOTIVE HOLDINGS CORP,TRW AUTOMOTIVE WINONA,55987LKCNT5752I,5752 IND US TRIAL PARK RD,WINONA,WINONA,MN,55987
899,44.031,-91.4039,,MIDWEST METAL PRODUCTS INC,55987MDWST1175E,1175 E BROADWAY ST,WINONA,WINONA,MN,55987
900,44.022,-91.363,,MILLER FELPAX CORP,55987MLLRF1155E,1155 E 8TH ST,WINONA,WINONA,MN,55987
901,44.0303,-91.372,MILLER WASTE MILLS,MILLER WASTE MILLS (DBA RTP CO),55987MLLRW580EF,580 E FRONT ST,WINONA,WINONA,MN,55987
902,44.0323,-91.39,UNITED MACHINE and FOUNDRY,ALLIANT CASTINGS,55987NTDMC1200W,1200 W 3RD ST,WINONA,WINONA,MN,55987
903,44.031,-91.361,PEERLESS INDUSTRIAL GROUP INC,PEERLESS CHAIN CO,55987PRLSS1416E,1416 E SANBORN ST,WINONA,WINONA,MN,55987
904,44.0723,-91.373,TRW AUTOMOTIVE INC,TRW AUTOMOTIVE-MACHINE BUILDING DIV,55987TRWTM5731I,5731 IND US TRIAL PARK RD,WINONA,WINONA,MN,55987
905,44.4029,-91.2229,,WINCRAFT INC,55987WNCRF1205E,1205 E SANBORN ST,WINONA,WINONA,MN,55987
906,44.0136,-91.3635,WENONAH CANOE,WE-NO-NAH CANOE INC,55987WNNHC1252B,1252 BUNDY BLVD,WINONA,WINONA,MN,55987
907,44.0116,-91.3636,WATLOW ELECTRIC MANUFACTURING CO,WATLOW,55987WTLWW1241B,1241 BUNDY BLVD,WINONA,WINONA,MN,55987
910,49.173,-92.4,,ARISTOKRAFT PLANT 9,55992DCRFM1010N,1010 N STAR DR,ZUMBROTA,GOODHUE,MN,55992
911,44.0902,-94.0213,,BIG GAIN INC,56001BGGNN416MA,416 MATHEWS ST,MANKATO,BLUE EARTH,MN,56001
913,44.1002,-94.0015,,CROWN CORK and SEAL CO INC,56001CRWNC174CH,174 CHESTNUT ST,MANKATO,BLUE EARTH,MN,56001
914,44.1135,-93.5953,,FEED SERVICE CO INC,56001FDSRV303LU,303 LUNDIN BLVD,MANKATO,BLUE EARTH,MN,56001
915,44.114,-93.5938,ALLTECH INC,HUBBARD FEEDS INC,56001HBBRD20153,2015 3RD AVE,MANKATO,BLUE EARTH,MN,56001
916,44.093,-94.02,CHS INC,CHS MANKATO,56001HNYMD2060S,2020 S RIVERFRONT DR,MANKATO,BLUE EARTH,MN,56001
917,44.1057,-94.03,,KATO ENGINEERING,56001KTNGN2075H,2075 HOWARD DR W,NORTH MANKATO,NICOLLET,MN,56003
919,44.1044,-93.5934,,MGA GRAPHICS,56001MGGRP215MA,215 MAXFIELD ST,MANKATO,BLUE EARTH,MN,56001
921,44.111,-93.593,ARCHER DANIELS MIDLAND CO,ADM,56001RCHRD3RDHA,2019 3RD AVE,MANKATO,BLUE EARTH,MN,56001
922,44.09,-94.0218,,ASSOCIATED ENG OF MANKATO INC,56001SSCTD320ST,320 STATE RD,MANKATO,BLUE EARTH,MN,56001
923,44.103,-93.5955,,DOTSON CO INC,56001THDTS200WR,200 W ROCK ST,MANKATO,BLUE EARTH,MN,56001
927,44.0959,-93.5927,,LAND O'LAKES FARMLAND FEED,56002FRMLN3301T,3301 3RD AVE,MANKATO,BLUE EARTH,MN,56002
928,44.1318,-93.5507,,HINIKER CO,56002HNKRCPOBOX,RT 5 AIRPORT RD,MANKATO,BLUE EARTH,MN,56001
929,44.1021,-94.0244,,MICO INC,56002MCNCX1911L,1911 LEE BLVD,NORTH MANKATO,NICOLLET,MN,560028118
930,44.134,-93.57,GENERAL ELECTRIC CO (GE CO),MIDWEST ELECTRIC PRODUCTS INC.,56002MDWSTHWY22,58155 240TH ST,MANKATO,BLUE EARTH,MN,56001
931,44.1213,-93.5912,,ATLAS ALCHEM PLASTICS INC.,56002TLSLC480IN,480 INDUSTRIAL RD,MANKATO,BLUE EARTH,MN,56002
932,44.1033,-94.0219,,CARLSON CRAFT COMMERCIAL,56003CRLSN1625R,1625 ROE CREST DR,NORTH MANKATO,NICOLLET,MN,56003
933,44.104,-94.0153,,CARLSON CRAFT CATALOG,56003CRLSN1730J,1730 JAMES DR,NORTH MANKATO,NICOLLET,MN,56003
934,44.104,-94.0236,,CARLSON CRAFT SOCIAL,56003CRLSN1750T,1750 TOWER BLVD,NORTH MANKATO,NICOLLET,MN,56003
935,44.1033,-94.0153,,CORPORATE GRAPHICS INTERNATIONAL INC,56003CRPRT1750N,1750 NORTHWAY DR,NORTH MANKATO,NICOLLET,MN,56003
936,44.1033,-94.0209,,FINE IMPRESSIONS,56003FNMPR1680R,1680 ROE CREST DR,NORTH MANKATO,NICOLLET,MN,56003
937,44.104,-94.0153,,NATIONAL RECOGNITION PRODUCTS,56003NTNLR1730J,1730 JAMES DR,NORTH MANKATO,NICOLLET,MN,56003
938,44.1033,-94.0235,,PRECISION PRESS,56003PRCSN1650T,1650 TOWER BLVD,NORTH MANKATO,NICOLLET,MN,56003
939,43.3717,-93.2105,GREAT LAKES POLYMERS HOLDINGS CORP,GREAT LAKES POLYMER TECHNOLOGIES ALBERT LEA PLANT,56007BRDNC9916T,909 16TH ST,ALBERT LEA,FREEBORN,MN,56007
940,43.4044,-93.2266,,FOUNTAIN IND CO,56007FNTNN92214,922 14TH ST,ALBERT LEA,FREEBORN,MN,56007
941,43.3843,-93.2226,,FREEBORN FOODS CO,56007FRBRN620AD,620 ADAMS AVE,ALBERT LEA,FREEBORN,MN,560071186
942,43.3858,-93.2122,,FARMLAND FOODS INC,56007FRMST1000E,1000 E MAIN ST,ALBERT LEA,FREEBORN,MN,56007
944,43.3433,-93.1812,POET BIOREFINING LLC,AGRA RESOURCES LLC (DBA POET GLENVILLE),56007GRRSR1MILE,15300 780TH AVE,ALBERT LEA,FREEBORN,MN,56007
945,43.5033,-93.3524,,VENTURA FOODS LLC,56007HLSMF91914,919 E 14 ST,ALBERT LEA,FREEBORN,MN,56007
946,43.3744,-93.2121,,ALBERT LEA ELECTROPLATING,56007LBRTL80812,808 12TH ST,ALBERT LEA,FREEBORN,MN,56007
947,43.3734,-93.2118,,CARGILL INC.,56007LNDLK70213,702 EAST 13TH ST.,ALBERT LEA,FREEBORN,MN,56007
948,43.3737,-93.202,,AIRGAS NORTH CENTRAL INC,56007MDWST2417M,2417 MYERS RD,ALBERT LEA,FREEBORN,MN,56007
949,43.3932,-93.2351,,IMPERIAL INC,56007MPRLNHIGHW,1701 N HWY 13,ALBERT LEA,FREEBORN,MN,56007
950,43.393,-93.213,,NATURAL BIOLOGICS LLC,56007NTRLB1215H,1215 HERSHEY STREET,ALBERT LEA,FREEBORN,MN,56007
951,43.3711,-93.2107,,INTERSTATE MEAT SERVICE INC,56007NTRST2309M,2309 MYERS RD,ALBERT LEA,FREEBORN,MN,56007
952,43.3944,-93.2118,,PROGRESS CASTING GROUP INC,56007PRGRS1521H,1521 E HAWTHORNE ST,ALBERT LEA,FREEBORN,MN,56007
953,43.3811,-93.2027,,CARPENTER CO,56007RCRPN2510Y,2510 Y H HANSON AVE,ALBERT LEA,FREEBORN,MN,56007
954,43.3842,-93.2229,,KERRY INGREDIENTS,56007RMRFR517AD,517 ADAMS AVE,ALBERT LEA,FREEBORN,MN,56007
955,43.3836,-93.2226,INNOVANCE INC,LOU-RICH INC,56007SCTSM505FR,505 W FRONT ST,ALBERT LEA,FREEBORN,MN,56007
956,43.3847,-93.2248,,STREATER INC PLANT 2,56007STRTR408SO,408 S 1ST AVE,ALBERT LEA,FREEBORN,MN,56007
957,43.3859,-93.2247,,STREATER INC.,56007STRTR411SO,411 S FIRST AVE,ALBERT LEA,FREEBORN,MN,560071779
965,43.3657,-96.0657,DARLING INGREDIENTS INC,DARLING INGREDIENTS INC,56013DRLNGRURAL,9000 382ND AVE,BLUE EARTH,FARIBAULT,MN,56013
967,43.303,-94.0505,,ELMORE TRUCK ACCESSORIES INC.,56027LMRTR107EW,107 E WILLIS ST,ELMORE,FARIBAULT,MN,56027
968,43.4008,-94.3018,CHS INC,CHS FAIRMONT,56031CHSLS18331,1833 130TH ST,FAIRMONT,MARTIN,MN,56031
969,43.3921,-94.265,3M CO,3M CO-FAIRMONT,56031MXXXX710NO,710 N STATE ST,FAIRMONT,MARTIN,MN,56031
970,43.3937,-94.2726,,"PICTSWEET FROZEN FOODS, FAIRMONT PLANT",56031NTDFD440E9,440 E 9TH ST,FAIRMONT,MARTIN,MN,56031
971,43.394,-94.3018,ILLINOIS TOOL WORKS INC,AVERY WEIGH-TRONIX LLC,56031WGHTR1000A,1000 ARMSTRONG DR,FAIRMONT,MARTIN,MN,56031
978,44.2253,-93.4417,,FIBERGLAS FABRICATORS INC,56057FBRGL315WI,315 W INDUSTRIAL ST,LE CENTER,LE SUEUR,MN,56057
979,44.2312,-93.4303,,WINCO INC,56057WNCNC225SC,225 S CORDOVA AVE,LE CENTER,LE SUEUR,MN,560571805
980,44.2935,-93.5202,CAMBRIA CO LLC,CAMBRIA PLANT,56058CMBRX31496,31496 CAMBRIA AVE,LE SUEUR,LE SUEUR,MN,56058
981,44.2831,-93.5417,,ADC TELECOMMUNICATIONS INC,56058DCTLC1100N,1100 N 4TH ST,LE SUEUR,LE SUEUR,MN,56058
982,44.2904,-93.5343,,MARS PETCARE US INC,56058HBBRD1800H,1800 MARS LANE,LE SUEUR,LE SUEUR,MN,560580127
983,44.28,-93.55,AGROPUR INC,LE SUEUR CHEESE CO,56058LSRCH719NO,719 N MAIN ST,LE SUEUR,LE SUEUR,MN,56058
984,44.2858,-93.5552,,LE SUEUR INC,56058LSRNC1409V,1409 VINE ST,LE SUEUR,LE SUEUR,MN,56058
985,44.16,-94.11,,"NICOLLET FOODS, DAVISCO DIV",56058NCLLT7346T,734 6TH ST,NICOLLET,NICOLLET,MN,56058
989,44.2543,-93.3356,SENECA FOODS CORP,SENECA FOODS CORP,56069PLLSB5THST,600 5TH ST SE,MONTGOMERY,LE SUEUR,MN,56069
991,44.3304,-93.3459,CHART INDUSTRIES INC,CHART INC,56071MNNST4077T,407 7TH ST NW,NEW PRAGUE,SCOTT,MN,56071
992,44.323,-93.373,,ASSOCIATED MILK PRODUCERS INC NEW PRAGUE,56071SSCTD3022N,302 2ND ST NW,NEW PRAGUE,SCOTT,MN,56071
993,43.5322,-93.3114,CARGILL INC,CARGILL FEED and NUTRITION NEW RICHLAND,56072CRGLL21295,21295 HWY 13,NEW RICHLAND,WASECA,MN,56072
994,44.1701,-94.2555,THE KRAFT HEINZ CO,KRAFT HEINZ CO-NEW ULM FACILITY,56073KRFTG2525S,2525 S BRIDGE ST,NEW ULM,BROWN,MN,56073
995,44.1951,-94.2819,3M CO,3M CO - NEW ULM,56073MCMPN1700N,1700 N MINNESOTA ST,NEW ULM,BROWN,MN,56073
996,44.1856,-94.2728,,NEW ULM PUBLIC UTILITIES POWER PLANT,56073NWLMP310FI,310 N FIRST ST,NEW ULM,BROWN,MN,56073
997,44.2038,-94.2923,,COLEMAN POWERMATE COMPRESSORS,56073SNBRN2137N,2137 N BROADWAY,NEW ULM,BROWN,MN,560730247
998,44.1852,-94.2427,ASSOCIATED MILK PRODUCERS INC,ASSOCIATED MILK PRODUCERS INC,56073SSCTD312CE,312 CENTER ST,NEW ULM,BROWN,MN,56073
999,44.11,-94.16,,HEWITT MACHINE and MANUFACTURING INC.,56074HWTTM709HW,709 HWY 14,NICOLLET,NICOLLET,MN,56074
1002,43.583,-94.3645,,OLSON INDUSTRIES INC,56081LSNND25515,255 15TH ST S,SAINT JAMES,WATONWAN,MN,56081
1003,43.5858,-94.3742,,S-T IND INC,56081STNDS301AR,301 ARMSTRONG BLVD N,SAINT JAMES,WATONWAN,MN,560810517
1004,43.58,-94.38,,CONAGRA REFRIGERATED FOODS,56081SWFTC82011,820 ELEVENTH ST N,SAINT JAMES,WATONWAN,MN,56081
1005,43.5846,-94.3642,,WESTIN AUTOMOTIVE PRODUCTS INC,56081WSTNN240S1,240 S 15TH ST,SAINT JAMES,WATONWAN,MN,56081
1007,44.2026,-93.5719,,ALUMACRAFT BOAT CO,56082LMCRF315WS,315 W ST JULIEN ST,SAINT PETER,NICOLLET,MN,56082
1009,44.2026,-94.5733,,ONAN POWER ELECTRONICS,56082NNPWR922NO,922 N SWIFT ST,SAINT PETER,NICOLLET,MN,56082
1010,44.1943,-92.5713,,DAVISCO ST PETER DIV,56082STPTR119WB,119 W BROADWAY,SAINT PETER,NICOLLET,MN,56082
1011,44.203,-93.5726,,CREATION TECHNOLOGIES ST PETER,56082TYTRN430RI,430 RITT ST,SAINT PETER,NICOLLET,MN,56082
1012,44.1741,-94.4415,,DEL MONTE FOODS PLANT #114,56085DLMNTRT14W,RTE 14 W CITY LIMITS,SLEEPY EYE,BROWN,MN,560850407
1013,44.1744,-94.4336,,ADVERTISING UNLIMITED,56085DVRTS1000H,1000 HWY 4 S,SLEEPY EYE,BROWN,MN,56085
1014,44.175,-94.433,,ANDERSON CUSTOM PROCESSING INC,56085NDRSN310MA,301 MAIN ST W,SLEEPY EYE,BROWN,MN,56085
1015,44.1441,-94.5747,BERKSHIRE HATHAWAY INC,ACME BRICK COMPANY-OCHS BRICK,56087CHSBRHWY14,801 E ROCK ST,SPRINGFIELD,BROWN,MN,56087
1016,44.1313,-94.5959,MAT HOLDINGS INC,SANBORN MANUFACTURING,56087SNBRN118WE,118 W ROCK ST,SPRINGFIELD,BROWN,MN,56087
1017,44.1418,-94.5324,,VIGORENA FEEDS,56087VGRNF101SC,101 S CASS,SPRINGFIELD,BROWN,MN,560870107
1018,44.0424,-93.331,QUAD/GRAPHICS INC,QG PRINTING II LLC,56093BRWNPHIGHW,2300 BROWN AVE,WASECA,WASECA,MN,56093
1019,44.0519,-93.3032,BEL FUSE INC,CINCH CONNECTIVITY SOLUTIONS,56093FJHNS299JO,299 JOHNSON AVE SW STE 100,WASECA,WASECA,MN,56093
1020,44.0432,-93.305,BIRDS EYE FOODS INC,BIRDS EYE FOODS LLC,56093GNLNK4004T,400 4TH ST SW,WASECA,WASECA,MN,56093
1023,43.4445,-93.433,,SWIFT-ECKRICH INC,56097SWFTC115NB,115 N BROADWAY ST,WELLS,FARIBAULT,MN,56097
1024,43.44,-94.09,,CORN PLUS,56098CRNPL7116T,711 6TH AVE SE,WINNEBAGO,FARIBAULT,MN,56098
1025,43.3522,-94.061,RAINEY ROAD HOLDINGS INC,CROWN TONKA WALK-INS,56098CRWNF304MA,304 N MAIN ST,WINNEBAGO,FARIBAULT,MN,56098
1027,43.54,-95.043,POET BIOREFINING LLC,ETHANOL 2000 LLP (DBA POET BIOREFINING-BINGHAM LAKE),56118THNLLHWY60,40212 510TH AVE,BINGHAM LAKE,COTTONWOOD,MN,56118
1028,43.4225,-95.2712,,MINNESOTA SOYBEAN PROCESSORS,56119MNNST121ZE,121 ZEH AVE,BREWSTER,NOBLES,MN,56119
1029,43.3348,-94.4621,BRANDFX LLC,BRANDFX LLC,56127GLSSTHWY4N,600 HWY 4 N,DUNNELL,MARTIN,MN,56127
1031,43.3817,-94.5834,AGCO CORP,AGCO CORP JACKSON OPERATIONS,56143GCHMQ202IN,202 INDUSTRIAL PARK,JACKSON,JACKSON,MN,56143
1033,43.3901,-96.1019,GEVO,AGRI-ENERGY,56156GRNRG502SW,502 S WALNUT,LUVERNE,ROCK,MN,56156
1034,43.3912,-96.1325,,LAND O'LAKES INC,56156LNDLK301SO,301 S WALNUT,LUVERNE,ROCK,MN,56156
1035,43.3835,-96.1426,,IBP INC,56158BPNCXWESTC,HWY 17 W,LUVERNE,ROCK,MN,56156
1036,43.5624,-94.5452,MILK SPECIALTIES GLOBAL,MILK SPECIALTIES GLOBAL - MOUNTAIN LAKE,56159LNDLKEASTH,2204 3RD AVE,MOUNTAIN LAKE,COTTONWOOD,MN,56159
1040,43.59,-96.172,,BAYLINER MARINE CORP,56164BYLNR911SI,911 SIOUX DR,PIPESTONE,PIPESTONE,MN,56164
1041,43.5855,-96.1725,,US MARINE/BRUNSWICK FAMILY BOAT CO INC.,56164BYLNR918SI,918 SIOUX DR,PIPESTONE,PIPESTONE,MN,56164
1044,43.4023,-94.423,,INTERSTATE POWER and LIGHT CO FOX LAKE,56171LLNTN84412,844 125TH ST PO BOX 367,SHERBURN,MARTIN,MN,56171
1045,43.4756,-94.4907,GREAT RIVER ENERGY,LAKEFIELD JUNCTION STATION,56176LKFLD21592,2159 20TH AVENUE,TRIMONT,MARTIN,MN,56176
1046,43.4,-95.35,,CAMPBELL SOUP CO,56187CMPBL115NI,115 9TH ST,WORTHINGTON,NOBLES,MN,56187
1047,43.3909,-95.3228,ALLTECH INC,HUBBARD FEEDS INC,56187CNTNTHWY60,HWY 60 N,WORTHINGTON,NOBLES,MN,56187
1048,43.3657,-95.3344,ALLTECH INC,RIDLEY BLOCK OPERATIONS,56187HBBRDCOUNT,2740 COUNTY RD 35 E,WORTHINGTON,NOBLES,MN,56187
1050,43.3804,-95.3359,JBS USA FOOD CO,JBS USA LLC SWIFT PORK CO,56187SPCNCPOBOX,1700 HWY 60 NE,WORTHINGTON,NOBLES,MN,56187
1053,45.0727,-95.0457,,CENTRAL MINNESOTA FABRICATING INC,56201CNTRL2805W,2805 WEST GORTON AVE,WILLMAR,KANDIYOHI,MN,562011178
1054,45.0621,-95.043,,HARVEST STATES CO-OP,56201HRVST22NDS,22ND ST SW,WILLMAR,KANDIYOHI,MN,56207
1055,45.0715,-95.0312,,JENNIE-O FOODS INC,56201JNNFD1126W,1126 W BENSON AVE,WILLMAR,KANDIYOHI,MN,56201
1056,45.0634,-95.0412,HORMEL FOODS CORP,JENNIE-O TURKEY STORE WILLMAR,56201JNNFD2505W,2505 WILLMAR AVE SW,WILLMAR,KANDIYOHI,MN,56201
1057,45.062,-95.043,LAND O LAKES INC,LAND O'LAKES PURINA FEED LLC - WILLMAR,56201LNDLK17002,1700 22ND ST SW,WILLMAR,KANDIYOHI,MN,56201
1058,45.0657,-95.0406,,MOLENAAR INC,56201MLNRN601WE,601 W HWY 40,WILLMAR,KANDIYOHI,MN,56201
1059,45.0726,-95.0543,WILLMAR POULTRY FARMS INC,PALS INC,56201WLLMR2500A,3735 WEST FIRST AVE,WILLMAR,KANDIYOHI,MN,56201
1060,45.08,-95.08,,WILLMAR POULTRY CO INC (DBA PALS),56201WLLMR369CO,3735 COUNTY RD 5 SW,WILLMAR,KANDIYOHI,MN,56201
1062,45.0819,-94.4612,HORMEL FOODS CORP,JENNIE O TURKEY STORE ATWATER FEEDMILL,56209JNNFD501PL,501 PLEASANT AVE,ATWATER,KANDIYOHI,MN,56209
1065,45.194,-95.3754,CHIPPEWA VALLEY AGRAFUELS COOPERATIVE,CHIPPEWA VALLEY ETHANOL CO,56215CHPPW27020,270 20TH ST NW,BENSON,SWIFT,MN,56215
1066,45.1838,-95.3715,,LORAL INC,56215LRLNC2200H,2200 HALL AVE,BENSON,SWIFT,MN,56215
1067,45.1741,-95.3229,CASE NEW HOLLAND INDUSTRIAL INC,CNH INDUSTRIAL AMERICA LLC,56215TYLRLEASTH,260 HWY 12 SE,BENSON,SWIFT,MN,56215
1070,44.4301,-96.1551,,SCHOTT CORP,56220SCHTT10411,104 11TH ST,CANBY,YELLOW MEDICINE,MN,56220
1071,44.5619,-95.2304,,TEBBEN MANUFACTURING CO INC,56222TBBNMRR2BO,R R 2 BOX 140,CLARA CITY,CHIPPEWA,MN,56222
1072,44.3634,-95.4012,FORTUNE BRANDS HOME and SECURITY INC,MID CONTINENT CABINETRY,56229NRCRF67E2N,67 E 2ND ST N,COTTONWOOD,LYON,MN,56229
1073,44.5625,-96.0315,AG PROCESSING INC,AG PROCESSING INC A COOPERATIVE,56232GPRCS8THDI,800 DIAGONAL ST,DAWSON,LAC QUI PARLE,MN,56232
1074,44.5628,-96.0348,HORMEL FOODS CORP,JENNIE-O TURKEYSTORE DAWSON FEED MILL,56232LNDLKHWY21,HWY 212 and COUNTY RD 25,DAWSON,LAC QUI PARLE,MN,56232
1075,44.5545,-96.0115,BLUEGRASS DAIRY and FOOD INC,BLUEGRASS PROTEINS,56232SSCTDHWY21,1864 311TH AVE,DAWSON,LAC QUI PARLE,MN,56232
1078,44.5,-95.3,,STANT CORP PLEWS/EDELMANN DIV,56241PLWSD1021H,1021 HWY 212 W,GRANITE FALLS,YELLOW MEDICINE,MN,56241
1079,44.8414,-90.3345,RITALKA INC,SPECSYS INC,56241VCTRF1123H,1123 HWY 212 W,GRANITE FALLS,YELLOW MEDICINE,MN,56241
1080,45.0906,-94.405,,PALM MFG and SALES,56243PLMSL53800,53800 CSHA 16,GROVE CITY,MEEKER,MN,56243
1081,45.0909,-94.4048,,PRECISION FIBERGLASS PRODUCTS LTD,56243PRCSNHWY12,108 1ST ST N,GROVE CITY,MEEKER,MN,56243
1083,45.4748,-96.5915,VISHAY INTERTECHNOLOGY INC,HIREL SYSTEMS LLC-MARSHALL,56258HRLSY64WER,604 W ERIE RD,MARSHALL,LYON,MN,56258
1084,44.2659,-95.4747,,HEARTLAND FOODS CO,56258HRTLN112S6,112S 6TH ST,MARSHALL,LYON,MN,56258
1085,44.2734,-95.4726,KOCH INDUSTRIES INC,FLINT HILLS RESOURCES PINE BEND LLC MARSHALL,56258KCHMT901N7,901 N 7TH ST,MARSHALL,LYON,MN,56258
1086,44.2813,-95.4727,ARCHER DANIELS MIDLAND CO,ADM,56258MNNST400WE,400 W ERIE RD,MARSHALL,LYON,MN,56258
1087,44.273,-95.481,,PPG INDUSTRIES INC WORKS #20,56258PPGND1604N,1604 N SUPERIOR RD,MARSHALL,LYON,MN,56258
1088,44.2807,-95.4735,,SCHWAN'S FOOD MANUFACTURING INC CFP/SFP,56258SCHWN1602S,1602 SUPERIOR RD,MARSHALL,LYON,MN,56258
1089,44.2807,-95.4736,SCHWAN'S GLOBAL SUPPLY CHAIN INC,SCHWAN'S GLOBAL SUPPLY CHAIN ICE CREAM PLANT,56258SCHWN601MI,601 MICHIGAN RD,MARSHALL,LYON,MN,56258
1090,44.27,-95.494,MIDWEST AG SUPPLEMENTS LLC,MIDWEST AG SUPPLEMENTS MARSHALL FEED,56258STNDR601ON,601 ONTARIO RD,MARSHALL,LYON,MN,56258
1091,44.334,-95.5913,,SCHOTT CORP,56264SCHTT218NJ,218 N JEFFERSON,MINNEOTA,LYON,MN,56264
1092,44.5712,-95.4154,,JENNIE-O FOODS INC,56265JNNFD901N2,901 N 24TH ST,MONTEVIDEO,CHIPPEWA,MN,56265
1093,44.5754,-95.4302,,MICRO DYNAMICS CORP BUILDING 2,56265MCRDY1633N,1633 N 9TH ST,MONTEVIDEO,CHIPPEWA,MN,56265
1094,44.5755,-95.4251,LOGIC PD INC,LOGIC PD INC MONTEVIDEO,56265MCRDY1646N,1646 N 9TH ST,MONTEVIDEO,CHIPPEWA,MN,56265
1095,45.3459,-95.55,,DENCO II LLC,56267MRRSGHWY59,227 S COUNTY RD 22,MORRIS,STEVENS,MN,56267
1099,45.0755,-95.013,TROUW NUTRITION USA LLC,TROUW NUTRITION USA LLC,56273NTRBSNORTH,917 N BUSINESS 71,WILLMAR,KANDIYOHI,MN,56201
1100,45.1816,-94.5505,,TRINITY INDUSTRIES INC,56273TRNTYHWY23,HWY 23 E COUNTY RD 31 COUNTY RD 31 E,NEW LONDON,KANDIYOHI,MN,56273
1101,45.1836,-96.2627,,MIN-DAK BEVERAGES INC,56278MNDKB148SE,148 2ND ST SE,ORTONVILLE,BIG STONE,MN,56278
1102,44.3425,-95.0649,FARMERS UNION INDUSTRIES LLC,CENTRAL BI-PRODUCTS,56283CNTRLRRCOR,33361 COUNTY RD 25,REDWOOD FALLS,REDWOOD,MN,56283
1103,44.3237,-95.0526,BERKSHIRE HATHAWAY INC,SCHULT REDWOOD FALLS,56283HBSMN210IN,201 INDUSTRIAL DR,REDWOOD FALLS,REDWOOD,MN,56283
1104,44.322,-95.0701,DAKTRONICS INC,DAKTRONICS INC,56283ZYTCC1425E,1425 E BRIDGE ST,REDWOOD FALLS,REDWOOD,MN,56283
1105,44.473,-95.1,SOUTHERN MINNESOTA BEET SUGAR COOPERATIVE,SOUTHERN MINNESOTA BEET SUGAR COOPERATIVE,56284STHRNEASTH,83550 COUNTY RD 21,RENVILLE,RENVILLE,MN,56284
1106,44.4714,-95.2122,,WARNER MFG CO,56285WRNRM2005T,"200 5TH ST, BOX 427",SACRED HEART,RENVILLE,MN,56285
1108,45.3118,-94.0955,,ANTIOCH CO,56301NTCHC2815C,2815 CLEARWATER RD,SAINT CLOUD,STEARNS,MN,56301
1109,45.35,-94.2456,NEW FLYER INDUSTRIES INC,NEW FLYER OF AMERICA,56301NWFLY6200G,6200 GLENN CARLSON DR,SAINT CLOUD,STEARNS,MN,56301
1110,45.34,-94.13,,WIMAN CORP,56301WMNCR11MCL,53 MCLELAND RD,SAINT CLOUD,STEARNS,MN,56301
1111,45.33,-94.08,,MINNESOTA CORRECTIONAL FACILITY,56302MNNST2305M,2305 MINNESOTA BLVD SE,SAINT CLOUD,STEARNS,MN,56302
1112,45.3436,-94.0228,,QUEBECOR WORLD ST CLOUD,56302QBCRW66MAY,660 MAYHEW LAKE RD NE,SAINT CLOUD,BENTON,MN,56302
1113,45.34,-94.082,,VISION-EASE LENS,56302VSNSL70054,700 54TH AVE N,SAINT CLOUD,STEARNS,MN,56303
1114,45.335,-94.134,,DCI INC,56303DCNCX600N5,600 N 54 AVE,SAINT CLOUD,STEARNS,MN,56303
1115,45.3355,-94.1519,,NORTHERN WIRE PRODUCTS DESIGNER WOOD PRODUCTS,56303DSGNR6600R,6600 RIDGEWOOD RD,SAINT CLOUD,STEARNS,MN,56303
1116,45.34,-94.1,,LANTZ LENSES INC,56303LNTZL6650S,6650 SAUKVIEW DR,SAINT CLOUD,STEARNS,MN,56303
1117,45.331,-94.1305,GREDE HOLDINGS LLC,GREDE LLC SAINT CLOUD,56303MNTRN711AN,5200 FOUNDRY CIR,SAINT CLOUD,STEARNS,MN,56303
1118,45.3328,-94.1456,,NAHAN PRINTING INC,56303NHNPR7000S,7000 SAUKVIEW DR,SAINT CLOUD,STEARNS,MN,56303
1123,45.3747,-94.3525,THE KRAFT HEINZ CO,THE KRAFT HEINZ CO,56307KRFTFRAILR,600 RAILROAD AVE BOX 300,ALBANY,STEARNS,MN,56307
1124,45.5,-95.23,,CENTRAL SPECIALTIES INC HOT MIX PLANT 1,56308CNTRL6325C,6325 COUNTY RD 87 SW,ALEXANDRIA,DOUGLAS,MN,56308
1125,46.513,-96.2403,,DOUGLAS MACHINE INC,56308DGLSM16023,3404 IOWA ST,ALEXANDRIA,DOUGLAS,MN,56308
1126,45.5307,-95.2325,ALLTECH INC,HUBBARD FEEDS INC,56308HBBRD805NO,805 NOKOMIS ST,ALEXANDRIA,DOUGLAS,MN,56308
1127,45.533,-95.233,,ALEXANDRIA EXTRUSION CO,56308LXNDR401CO,401 COUNTY RD 22 NW,ALEXANDRIA,DOUGLAS,MN,56308
1128,45.5209,-95.2232,3M CO,3M CO-ALEXANDRIA,56308MCMPN2115S,2115 S BROADWAY,ALEXANDRIA,DOUGLAS,MN,56308
1129,45.542,-95.2,SUNOPTA INC,SUNOPTA GRAINS and FOODS,56308NRTHR601TH,601 3RD AVE W,ALEXANDRIA,DOUGLAS,MN,56308
1130,45.5127,-95.2356,STANDARD IRON and WIRE WORKS INC,STANDARD IRON and WIRE WORKS INC,56308STNDR14013,1401 36TH AVE W,ALEXANDRIA,DOUGLAS,MN,56308
1134,45.3609,-94.2652,,NOVA FABRICATING INC,56310NVFBR404CO,404 CO RD 50,AVON,STEARNS,MN,56310
1135,45.5438,-95.5324,,TWF INDUSTRIES INC,56311TWFNDHWY55,HWY 55,BARRETT,GRANT,MN,56311
1136,45.175,-95.0358,,LAKESIDE FOODS INC,56316LKSDF500IN,500 INDUSTRIAL PARK RD,BROOTEN,STEARNS,MN,56316
1138,45.2705,-94.2829,COLDSPRING,COLDSPRING,56320CLDSP17434,17482 GRANITE W RD,COLD SPRING,STEARNS,MN,56320
1139,45.2714,-94.2527,,COLD SPRING GRANITE - MAIN PLA NT,56320CLDSP32S3R,202 S 3RD AVE,COLD SPRING,STEARNS,MN,56320
1140,45.272,-94.2546,,COLD SPRING GRANITE FOUNDRY,56320CLDSP422MA,422 MAIN ST,COLD SPRING,STEARNS,MN,56320
1141,47.274,-94.242,JBS USA FOOD CO,COLD SPRINGS PROCESSING PLANT GOLD'N PLUMP POULTRY INC,56320GLDNP14244,851 SAUK RIVER RD,COLD SPRING,STEARNS,MN,56320
1142,45.4,-93.5517,GORECKI MANUFACTURING INC,GORECKI MFG INC,56329GRCKM512ND,51 2ND AVE W,FOLEY,BENTON,MN,56329
1143,45.3737,-95.2225,,"WASP INC, BLUE BUILDING",56334BLBLDHWY55,HWY 55 E,GLENWOOD,POPE,MN,56334
1144,45.3501,-95.2201,,CLYDE MACHINES INC,56334CLYDMNORTH,NORTH HWY 55,GLENWOOD,POPE,MN,56334
1145,45.3737,-95.2225,,"WASP INC, TRUCK SHOP",56334WSPNCHWY55,HWY 55 E,GLENWOOD,POPE,MN,56334
1146,45.4446,-94.2216,AIPCF V,POLAR TANK TRAILER,56340PLRTN12810,12810 COUNTY ROAD 17,HOLDINGFORD,STEARNS,MN,56340
1147,46.0823,-93.2804,,MERIT ENTERPRISES INC,56342MRTNT320HE,315 HENNEPIN AVE S,ISLE,MILLE LACS,MN,56342
1148,46.013,-94.2011,,CENTRAL MN RENEWABLES,56345CNTRL17936,17936 HERON RD,LITTLE FALLS,MORRISON,MN,56345
1149,45.5858,-94.2121,,CRESTLINER,56345CRSTL60913,609 13TH AVE NE,LITTLE FALLS,MORRISON,MN,56345
1150,45.5928,-94.2224,,DESIGNER WOOD PRODUCTS,56345DSGNR40113,401 13TH AVE NW,LITTLE FALLS,MORRISON,MN,56345
1151,45.5656,-94.2049,,HENNEPIN PAPER CO,56345HNNPN100SW,100 SW 5TH AVE,LITTLE FALLS,MORRISON,MN,56345
1152,45.59,-94.22,WABASH NATIONAL CORP,WABASH NATIONAL,56345LRSNBPAULL,700 PAUL LARSON MEMORIAL DR,LITTLE FALLS,MORRISON,MN,56345
1153,45.59,-94.211,,ANDERSON CUSTOM PROCESSING INC,56345NDRSN121LI,121 LINDBERGH DR,LITTLE FALLS,MORRISON,MN,56345
1156,45.5952,-94.5136,FARMERS UNION INDUSTRIES LLC,CENTRAL BI-PRODUCTS,56347CNTRLHWY71,25498 HIGHWAY 71 N,LONG PRAIRIE,TODD,MN,56347
1157,45.5835,-94.5723,AMERICAN FOODS GROUP LLC,LONG PRAIRIE PACKING CO,56347LNGPR10RIV,10 RIVERSIDE DR,LONG PRAIRIE,TODD,MN,56347
1162,45.3804,-94.4511,,CARSTENS INDUSTRIES INC,56352CRSTN733WM,733 W. MAIN ST,MELROSE,STEARNS,MN,56352
1163,45.4025,-94.4802,HORMEL FOODS CORP,JENNIE-O TURKEY STORE - MELROSE,56352JNNFD123S5,123 S 5TH AVE E,MELROSE,STEARNS,MN,56352
1164,45.4013,-94.48,LAND O LAKES INC,LAND O'LAKES - MELROSE DAIRY PROTEINS LLC,56352KRFTN1000E,1000 E KRAFT DR,MELROSE,STEARNS,MN,56352
1165,45.4013,-94.48,,KRAFT INC,56352KRFTN407EF,407 E 1ST ST,MELROSE,STEARNS,MN,56352
1166,45.4515,-93.3913,,LAND O'LAKES INC,56353LNDLK1353R,135 3RD AVE SW,MILACA,MILLE LACS,MN,56353
1169,45.225,-94.4244,,CROMWELL MOLDING,56362CRMWL27546,27546 STATE HWY 23,PAYNESVILLE,STEARNS,MN,56362
1170,45.2227,-94.4222,ASSOCIATED MILK PRODUCERS INC,ASSOCIATED MILK PRODUCERS INC,56362SSCTD200RA,200 RAILROAD ST,PAYNESVILLE,STEARNS,MN,56362
1171,45.2305,-94.4226,,WET JET INTERNATIONAL LTD,56362WTJTN114IN,114 INDL LOOP BLVD,PAYNESVILLE,STEARNS,MN,563621647
1172,45.305,-94.4226,,WET JET INTERNATIONAL LTD,56362WTJTN23WAS,23 WASHBURNE AVE,PAYNESVILLE,STEARNS,MN,563621647
1173,45.3243,-94.0326,,CENTRAL MARBLE PRODUCTS INC,56367CNTRL10499,1266 105TH ST NW,RICE,BENTON,MN,56367
1175,45.4036,-94.1729,,VIKING WATERBEDS INC,56374VKNGW38169,38169 COUNTY RD #2,SAINT JOSEPH,STEARNS,MN,56374
1176,45.3712,-94.1206,,VERSO PAPER CORP. - SARTELL MILL,56377CHMPN100EA,100 E SARTELL ST,SARTELL,BENTON,MN,56377
1177,45.37,-94.123,,DEZURIK INC,56377DZRKS250RI,250 RIVERSIDE AVE N,SARTELL,STEARNS,MN,56377
1178,45.441,-94.5744,,STANDARD IRON and WIRE WORKS INC.,56378STNDR1131S,1131 SINCLAIR LEWIS AVE,SAUK CENTRE,STEARNS,MN,56378
1180,45.35,-94.083,,DESIGN LINE CABINETS,56379DSGNL4INDU,4 INDUSTRIAL BOULEVARD,SAUK RAPIDS,BENTON,MN,56379
1181,45.35,-94.03,,DESIGN LINE CABINETS,56379DSGNLNORTH,NORTH HWY 10,SAUK RAPIDS,BENTON,MN,56379
1183,45.3437,-94.0525,,STONE PRODUCTS INC,56379STNPR336QU,3360 QUAIL RD NE,SAUK RAPIDS,BENTON,MN,56379
1184,45.34,-94.13,MILLER WASTE MILLS,WIMAN CORP,56379WMNCR180IN,180 INDUSTRIAL BLVD,SAUK RAPIDS,BENTON,MN,56379
1185,45.344,-94.0919,ESSILOR OF AMERICA INC,X-CEL OPTICAL CO,56379XCLPT806SB,806 S BENTON DR,SAUK RAPIDS,BENTON,MN,56379
1187,46.2211,-94.102,,ATEK PRODUCTS LLC,56401CRMTL210NE,210 N E.10TH AVE,BRAINERD,CROW WING,MN,56401
1188,46.2011,-94.1121,,LARCO MANUFACTURING,56401LRCNC1902S,1902 13TH ST SE,BRAINERD,CROW WING,MN,56401
1189,46.2453,-94.1656,,MAC MANUFACTURING INC,56401MCMNF1892S,18092 STATE HWY 371,BRAINERD,CROW WING,MN,56401
1190,46.1948,-94.1123,,IMAGE,56401MGXXX1100I,1100 INDUSTRIAL PARK RD,BRAINERD,CROW WING,MN,56401
1191,46.1955,-94.1149,LKQ CORP,KEYSTONE AUTOMOTIVE INDUSTRIES MINNESOTA INC,56401NRTHSPOBOX,2110 S 10TH ST,BRAINERD,CROW WING,MN,56401
1192,46.2233,-94.1053,WAUSAU PAPER CORP,WAUSAU PAPER MILLS LLC,56401PTLTC1801M,1801 MILL AVE NE,BRAINERD,CROW WING,MN,56401
1193,46.22,-94.0855,,A-TEK INC,56401TKNCXHWY21,HWY 210 E,BRAINERD,CROW WING,MN,56401
1195,47.0,-94.45,,WARNER MFG CO,56433WRNRMPOBOX,PO BOX 9,AKELEY,HUBBARD,MN,56433
1196,46.4949,-94.303,,EVELANDS INC,56435CLNDSHWY37,507 STATE 371,BACKUS,CASS,MN,56435
1197,46.1609,-95.0356,,SUNOPTA INGREDIENTS,56437NRTHR3082N,308 2ND AVE NW,BERTHA,TODD,MN,56437
1198,46.05,-95.5156,,LAND O'LAKES INC,56438LNDLK660CR,660 CREAMERY ST,BROWERVILLE,TODD,MN,56438
1199,46.2852,-93.5815,,ULTRANAUTICS CORP,56441LTRNTFIRST,FIRST ST SW,CROSBY,CROW WING,MN,56441
1200,46.2305,-93.5222,PARKER HANNIFIN CORP,PARKER HANNIFIN,56444PRKRH325FR,23406 FRONT ST,DEERWOOD,CROW WING,MN,56444
1201,46.2619,-93.5855,,ILEVEL BY WEYERHAEUSER,56444TRSJSCOUNT,19586 COUNTY RD 102,IRONTON,CROW WING,MN,56455
1202,46.44,-95.0555,SALO MANUFACTURING INC,SALO MANUFACTURING INC,56464SLMNF2612S,26 12TH ST SE,MENAHGA,WADENA,MN,56464
1203,46.531,-95.0345,,LAMB-WESTON/RDO FROZEN,56470NVRSKHWY71,3704 PARK AVE S,PARK RAPIDS,HUBBARD,MN,56470
1204,46.5425,-95.0359,TEAM INDUSTRIES,TEAM INDUSTRIES PARK RAPIDS,56470TMNDS51IND,501 INDUSTRIAL PARK RD,PARK RAPIDS,HUBBARD,MN,56470
1205,46.222,-94.4755,,STERN RUBBER CO,56479MRCNRAIRPO,AIRPORT INDL PARK,STAPLES,WADENA,MN,56479
1206,46.2145,-94.473,,3M CO STAPLES PLANT,56479MSTPL1030N,1030 N 5TH ST,STAPLES,TODD,MN,56479
1207,46.2636,-95.0814,,HOMECREST INDUSTRIES INC,56482HMCRS600SE,600 SE 5TH ST,WADENA,WADENA,MN,564820350
1209,46.4851,-95.4941,LAND O LAKES INC,LAND O'LAKES PURINA FEED LLC - DETROIT LAKES,56501LNDLK11101,1110 13TH AVE SE,DETROIT LAKES,BECKER,MN,56501
1210,46.49,-95.495,,SWIFT-ECKRICH INC,56501SWFTC913MC,913 MCKINLEY AVE,DETROIT LAKES,BECKER,MN,56501
1211,46.5018,-95.5012,TEAM INDUSTRIES,TEAM INDUSTRIES PARKRAPIDS DL INC,56501TMNDS1551R,1551 RICHWOOD RD,DETROIT LAKES,BECKER,MN,56501
1212,46.4757,-95.5545,,S J ELECTRO SYSTEMS INC,56502SJLCT22650,22650 COUNTY HWY 6,DETROIT LAKES,BECKER,MN,56501
1213,46.5212,-95.5853,TEAM INDUSTRIES,TEAM INDUSTRIES-AUDUBON,56511TMNDSFRTHR,FOURTH and ROBIN ST,AUDUBON,BECKER,MN,56511
1214,46.1749,-96.0609,,BANNER ENGINEERING CORP,56537BNNRN1010W,1010 WEYRENS RD,FERGUS FALLS,OTTER TAIL,MN,56537
1215,46.1652,-96.0512,,DAIRY FARMERS OF AMERICA INC,56537MDMRC301SO,301 S BUSE ST,FERGUS FALLS,OTTER TAIL,MN,56537
1216,46.174,-96.055,,QUALITY CIRCUITS INC,56537QLTYC1102P,1102 PROGRESS DR,FERGUS FALLS,OTTER TAIL,MN,56537
1217,46.1724,-96.0234,OTTER TAIL CORP,OTTER TAIL POWER CO HOOT LAKE PLANT,56537TTRTL1012W,1012 WATER PLANT RD,FERGUS FALLS,OTTER TAIL,MN,56537
1220,47.345,-95.4538,JRS USA LP,J RETTENMAIER USA LP,56542LNDLK710W1,710 W 1ST ST,FOSSTON,POLK,MN,56542
1225,46.5112,-96.4419,ANHEUSER-BUSCH COS LLC,BUSCH AGRICULTURAL RESOURCES LLC,56560BSCHG21012,2101 26TH ST S,MOORHEAD,CLAY,MN,56560
1226,46.5132,-96.4445,,AMOCO OIL MOORHEAD TERMINAL,56560MCLC01101S,1101 SE MAIN ST,MOORHEAD,CLAY,MN,56560
1227,46.5402,-96.4541,AMERICAN CRYSTAL SUGAR CO,AMERICAN CRYSTAL SUGAR CO,56560MRCNC2500N,2500 N 11TH ST,MOORHEAD,CLAY,MN,56560
1228,46.3131,-95.2222,BRUNSWICK CORP,BRUNSWICK NEW YORK MILLS OPERATIONS,56567LNDBTWESTC,318 W GILMAN,NEW YORK MILLS,OTTER TAIL,MN,56567
1231,46.37,-96.0616,HORMEL FOODS CORP,WEST CENTRAL TURKEYS LLC,56572WSTCN704BR,704 N. BROADWAY,PELICAN RAPIDS,OTTER TAIL,MN,56572
1232,46.3605,-95.3422,,BARREL O'FUN SNACK FOODS CO,56573BRRLF8004T,800-4TH ST NW BOX L,PERHAM,OTTER TAIL,MN,56573
1233,46.3535,-95.3434,,DOANE PET CARE CO,56573HNZPT1451S,145 1ST AVE N,PERHAM,OTTER TAIL,MN,56573
1234,46.3605,-95.3422,BONGARDS' CREAMERIES,BONGARDS' CREAMERIES PERHAM,56573LNDLK1103R,110 3RD AVE NE,PERHAM,OTTER TAIL,MN,56573
1237,47.27,-94.52,,CORE CRAFT INC,56601CRCRF790MA,791 MANHOMEN DR,BEMIDJI,BELTRAMI,MN,566010249
1238,47.2312,-94.4515,POTLATCH CORP,POTLATCHDELTIC LAND and LUMBER LLC - BEMIDJI LUMBERMILL,56601PTLTC5518C,50518 COUNTY 45,BEMIDJI,HUBBARD,MN,56601
1239,47.2325,-94.4448,,AINSWORTH ENGINEERED (USA) LLC,56601PTLTCRT3BO,29647 US HWY 2 E,BEMIDJI,HUBBARD,MN,56601
1240,47.3034,-97.5601,,GEORGIA-PACIFIC CORP,56601SPRWD280NY,280 NYMORE BEACH RD NE,BEMIDJI,BELTRAMI,MN,56619
1243,48.4247,-94.361,,ANI PHARMACEUTICALS BAUDETTE MAIN STREET FACILITY,56623RDRWL210MA,210 MAIN ST W,BAUDETTE,LAKE OF THE WOODS,MN,56623
1244,48.1,-93.52,,PAGE and HILL FOREST PRODUCTS INC,56627PGHLLHWY71,7556 COUNTY RD #31,BIG FALLS,KOOCHICHING,MN,56627
1245,48.363,-93.242,PACKAGING CORP OF AMERICA,BOISE WHITE PAPER LLC,56649BSCSCSECON,400 SECOND ST,INTERNATIONAL FALLS,KOOCHICHING,MN,56649
1246,48.363,-93.242,,INTERNATIONAL BILDRITE INC,56649NTRNT1014T,101 4TH ST E,INTERNATIONAL FALLS,KOOCHICHING,MN,56649
1247,46.3015,-92.421,,SPECIALTY MINERALS INC,56649PFZRS400SE,400 SECOND ST GATE 3,INTERNATIONAL FALLS,KOOCHICHING,MN,56649
1248,47.3048,-95.05,NORBORD INC,NORBORD MINNESOTA INC,56678NRTHWCOUNT,4409 NORTHWOOD RD NW,SOLWAY,BELTRAMI,MN,56678
1249,47.3922,-94.3949,,LAND O LAKES WOOD PRESERVING CO,56683LNDLKPOBOX,171 3RD AVE N,TENSTRIKE,BELTRAMI,MN,56683
1250,48.073,-96.1037,,COUNTRY LAKE FOODS INC BRIDGEMAN DIV,56701CNTRY122SM,122 S MAIN,THIEF RIVER FALLS,PENNINGTON,MN,56701
1251,48.0309,-96.11,,HYDRA-MAC INC,56701HYDRM1110P,1110 PENNINGTON AVE,THIEF RIVER FALLS,PENNINGTON,MN,56701
1252,48.0648,-96.1132,TEXTRON INC,ARCTIC CAT INC,56701RCTCN600BR,601 BROOKS AVE S,THIEF RIVER FALLS,PENNINGTON,MN,56701
1254,47.455,-96.38,AMERICAN CRYSTAL SUGAR CO,AMERICAN CRYSTAL SUGAR CO,56716MRCNCHIGHW,HWY 75 S,CROOKSTON,POLK,MN,56716
1255,47.4544,-96.3723,TRANSIT HOLDING CO,NEW FLYER OF AMERICA INC,56716NWFLY2145T,214 5TH AVE SW,CROOKSTON,POLK,MN,56716
1256,47.4552,-96.3728,,PHOENIX INDUSTRIES OF CROOKSTO N LTD,56716PHNXN1200B,1200 BRUCE ST,CROOKSTON,POLK,MN,56716
1257,47.5625,-97.0013,AMERICAN CRYSTAL SUGAR CO,AMERICAN CRYSTAL SUGAR CO,56721MRCNCHIGHW,BUSINESS HIGHWAY 2,EAST GRAND FORKS,POLK,MN,56721
1261,48.5127,-95.4116,POLARIS INDUSTRIES INC,POLARIS INDUSTRIES INC,56751PLRSNHWY89,301 5TH AVE SW,ROSEAU,ROSEAU,MN,56751
1262,48.1018,-96.4547,NORDIC FIBERGLASS INC,NORDIC FIBERGLASS INC,56762NRDCFHWY75,HWY 75 S,WARREN,MARSHALL,MN,56762
1263,48.545,-95.1926,,MARVIN LUMBER and CEDAR CO,56763MRVNWUSHWY,W US HWY 11,WARROAD,ROSEAU,MN,567630100
